{
"type": "FeatureCollection",
"name": "sites",
"crs": { "type": "name", "properties": { "name": "urn:ogc:def:crs:OGC:1.3:CRS84" } },
"features": [
{ "type": "Feature", "properties": { "Candidate_ID": "V3-01976", "row": 415, "col": 575, "HSI_Class": 3, "HabitatClass": "High", "Patch_ID": 2316, "Patch_Area_m2": 157500.0, "Patch_Area_Ha": 15.75, "LULC_T1_Code": 1, "LULC_T1": "Tree cover", "LULC_T2_Code": 1, "LULC_T2": "Tree cover", "LULC_Transition": "Tree cover → Tree cover", "LULC_Change_Class": "Stable", "NDVI_T1": 0.77838778495788574, "NDVI_T2": 0.56412220001220703, "Delta_NDVI": -0.21426558494567871, "NDVI_Change_Class": "Strong vegetation loss", "Integrated_Change_Class": "Changed-Degraded", "Integrated_Change_Severity": 2, "Count_Burung_500m": 8, "Record_Burung": "Yes", "Oldest_Burung_Date": null, "Latest_Burung_Date": null, "PreChange_Burung": "No", "Recent_Burung": "No", "Dist_Burung_m": 50.2517741011524, "Count_Reptil_500m": 22, "Record_Reptil": "Yes", "Oldest_Reptil_Date": null, "Latest_Reptil_Date": null, "PreChange_Reptil": "No", "Recent_Reptil": "No", "Dist_Reptil_m": 41.647357089669718, "Count_Amfibi_500m": 5, "Record_Amfibi": "Yes", "Oldest_Amfibi_Date": null, "Latest_Amfibi_Date": null, "PreChange_Amfibi": "No", "Recent_Amfibi": "No", "Dist_Amfibi_m": 123.74678869889432, "Count_Mamalia_500m": 1, "Record_Mamalia": "Yes", "Oldest_Mamalia_Date": null, "Latest_Mamalia_Date": null, "PreChange_Mamalia": "No", "Recent_Mamalia": "No", "Dist_Mamalia_m": 194.76557735436586, "Historical_Taxa": "Burung, Reptil, Amfibi, Mamalia", "NoRecord_Taxa": "", "PreChange_Taxa": "", "Recent_Taxa": "", "Any_Historical_Record": "Yes", "Any_PreChange_Record": "No", "All_Taxa_NoRecord": "No", "Nearest_Record_Distance_m": 41.647357089669718, "Survey_Function": "Change verification", "Survey_Taxon_Targets": "Burung, Reptil, Amfibi, Mamalia", "Occurrence_Status": "HISTORICAL_PRESENCE_FOR_AT_LEAST_ONE_TAXON", "Integrated_Stratum": "High | Changed-Degraded | Tree cover | HISTORICAL_PRESENCE_FOR_AT_LEAST_ONE_TAXON", "Function_Score": 1.0, "Change_Score": 1.0, "NDVI_Change_Score": 1.0, "LC_Rarity_Raw": 0.083333333333333329, "LandCover_Representation_Score": 0.16624193000339788, "Patch_Score": 0.49216547436952268, "Occurrence_Score": 0.91670528582066058, "Selection_Score": 0.81582336551952794, "SurveyPriority": "Priority 1", "Site_ID": "V3-001", "Longitude": 110.39700013625664, "Latitude": -7.8041164744543225, "Field_Burung": "Not surveyed", "Field_Reptil": "Not surveyed", "Field_Amfibi": "Not surveyed", "Field_Mamalia": "Not surveyed", "Field_Visit_Count": 0, "Field_Notes": "", "Dist_DriveRoad_m": 0.70185937679671229, "Nearest_Road_Class": "primary", "Road_Access_Tier": "Vehicle-access likely", "Dist_WalkNetwork_m": 0.86611662473690709, "Access_Priority": "A", "Access_Class": "Easy", "Estimated_Access_Mode": "Vehicle-nearby", "Accessibility_Status": "PRELIMINARY OK", "Permission_Required": "Unknown", "Safety_Flag": "Check", "Reviewer_Decision": "Pending", "Reviewer_Notes": "", "Replacement_Site_ID": "", "Route_From_Base_m": null, "Preliminary_Access_Recommendation": "KEEP — access favorable", "Original_Model_Easting": 433517.3825099594, "Original_Model_Northing": 9137309.768681813, "Original_Model_Longitude": 110.39700013625664, "Original_Model_Latitude": -7.8041164744543225 }, "geometry": { "type": "Point", "coordinates": [ 110.397000136256636, -7.804116474454323 ] } },
{ "type": "Feature", "properties": { "Candidate_ID": "V3-01345", "row": 324, "col": 248, "HSI_Class": 3, "HabitatClass": "High", "Patch_ID": 2262, "Patch_Area_m2": 1500.0, "Patch_Area_Ha": 0.15000000596046448, "LULC_T1_Code": 4, "LULC_T1": "Built-up", "LULC_T2_Code": 4, "LULC_T2": "Built-up", "LULC_Transition": "Built-up → Built-up", "LULC_Change_Class": "Stable", "NDVI_T1": 0.49693489074707031, "NDVI_T2": 0.68391251564025879, "Delta_NDVI": 0.18697762489318848, "NDVI_Change_Class": "Moderate vegetation gain", "Integrated_Change_Class": "Recovery", "Integrated_Change_Severity": 0, "Count_Burung_500m": 45, "Record_Burung": "Yes", "Oldest_Burung_Date": null, "Latest_Burung_Date": null, "PreChange_Burung": "No", "Recent_Burung": "No", "Dist_Burung_m": 187.55900787015918, "Count_Reptil_500m": 12, "Record_Reptil": "Yes", "Oldest_Reptil_Date": null, "Latest_Reptil_Date": null, "PreChange_Reptil": "No", "Recent_Reptil": "No", "Dist_Reptil_m": 103.75623745550165, "Count_Amfibi_500m": 6, "Record_Amfibi": "Yes", "Oldest_Amfibi_Date": null, "Latest_Amfibi_Date": null, "PreChange_Amfibi": "No", "Recent_Amfibi": "No", "Dist_Amfibi_m": 216.08336211483615, "Count_Mamalia_500m": 1, "Record_Mamalia": "Yes", "Oldest_Mamalia_Date": null, "Latest_Mamalia_Date": null, "PreChange_Mamalia": "No", "Recent_Mamalia": "No", "Dist_Mamalia_m": 236.26047626873836, "Historical_Taxa": "Burung, Reptil, Amfibi, Mamalia", "NoRecord_Taxa": "", "PreChange_Taxa": "", "Recent_Taxa": "", "Any_Historical_Record": "Yes", "Any_PreChange_Record": "No", "All_Taxa_NoRecord": "No", "Nearest_Record_Distance_m": 103.75623745550165, "Survey_Function": "Confirmatory presence", "Survey_Taxon_Targets": "Burung, Reptil, Amfibi, Mamalia", "Occurrence_Status": "HISTORICAL_PRESENCE_FOR_AT_LEAST_ONE_TAXON", "Integrated_Stratum": "High | Recovery | Built-up | HISTORICAL_PRESENCE_FOR_AT_LEAST_ONE_TAXON", "Function_Score": 0.75, "Change_Score": 0.65, "NDVI_Change_Score": 0.6, "LC_Rarity_Raw": 0.00025471217524197657, "LandCover_Representation_Score": 0.0, "Patch_Score": 0.039417747753765241, "Occurrence_Score": 0.79248752508899667, "Selection_Score": 0.52319052728427617, "SurveyPriority": "Priority 1", "Site_ID": "V3-002", "Longitude": 110.36735468707153, "Latitude": -7.7958421374841036, "Field_Burung": "Not surveyed", "Field_Reptil": "Not surveyed", "Field_Amfibi": "Not surveyed", "Field_Mamalia": "Not surveyed", "Field_Visit_Count": 0, "Field_Notes": "", "Dist_DriveRoad_m": 0.86611662473690709, "Nearest_Road_Class": "living_street", "Road_Access_Tier": "Vehicle-access likely", "Dist_WalkNetwork_m": 4.0083106594667717, "Access_Priority": "A", "Access_Class": "Easy", "Estimated_Access_Mode": "Vehicle-nearby", "Accessibility_Status": "PRELIMINARY OK", "Permission_Required": "Unknown", "Safety_Flag": "Check", "Reviewer_Decision": "Pending", "Reviewer_Notes": "", "Replacement_Site_ID": "", "Route_From_Base_m": null, "Preliminary_Access_Recommendation": "KEEP — access favorable", "Original_Model_Easting": 430247.3825099594, "Original_Model_Northing": 9138219.768681813, "Original_Model_Longitude": 110.36735468707153, "Original_Model_Latitude": -7.7958421374841036 }, "geometry": { "type": "Point", "coordinates": [ 110.367354687071526, -7.795842137484104 ] } },
{ "type": "Feature", "properties": { "Candidate_ID": "V3-01041", "row": 271, "col": 385, "HSI_Class": 3, "HabitatClass": "High", "Patch_ID": 2226, "Patch_Area_m2": 3900.0, "Patch_Area_Ha": 0.38999998569488525, "LULC_T1_Code": 4, "LULC_T1": "Built-up", "LULC_T2_Code": 4, "LULC_T2": "Built-up", "LULC_Transition": "Built-up → Built-up", "LULC_Change_Class": "Stable", "NDVI_T1": 0.37313520908355713, "NDVI_T2": 0.51132571697235107, "Delta_NDVI": 0.13819050788879395, "NDVI_Change_Class": "Moderate vegetation gain", "Integrated_Change_Class": "Recovery", "Integrated_Change_Severity": 0, "Count_Burung_500m": 3, "Record_Burung": "Yes", "Oldest_Burung_Date": null, "Latest_Burung_Date": null, "PreChange_Burung": "No", "Recent_Burung": "No", "Dist_Burung_m": 336.2767905725899, "Count_Reptil_500m": 3, "Record_Reptil": "Yes", "Oldest_Reptil_Date": null, "Latest_Reptil_Date": null, "PreChange_Reptil": "No", "Recent_Reptil": "No", "Dist_Reptil_m": 267.37752436231216, "Count_Amfibi_500m": 1, "Record_Amfibi": "Yes", "Oldest_Amfibi_Date": null, "Latest_Amfibi_Date": null, "PreChange_Amfibi": "No", "Recent_Amfibi": "No", "Dist_Amfibi_m": 498.65717518028106, "Count_Mamalia_500m": 1, "Record_Mamalia": "Yes", "Oldest_Mamalia_Date": null, "Latest_Mamalia_Date": null, "PreChange_Mamalia": "No", "Recent_Mamalia": "No", "Dist_Mamalia_m": 185.73359599886138, "Historical_Taxa": "Burung, Reptil, Amfibi, Mamalia", "NoRecord_Taxa": "", "PreChange_Taxa": "", "Recent_Taxa": "", "Any_Historical_Record": "Yes", "Any_PreChange_Record": "No", "All_Taxa_NoRecord": "No", "Nearest_Record_Distance_m": 185.73359599886138, "Survey_Function": "Confirmatory presence", "Survey_Taxon_Targets": "Burung, Reptil, Amfibi, Mamalia", "Occurrence_Status": "HISTORICAL_PRESENCE_FOR_AT_LEAST_ONE_TAXON", "Integrated_Stratum": "High | Recovery | Built-up | HISTORICAL_PRESENCE_FOR_AT_LEAST_ONE_TAXON", "Function_Score": 0.75, "Change_Score": 0.65, "NDVI_Change_Score": 0.6, "LC_Rarity_Raw": 0.00025471217524197657, "LandCover_Representation_Score": 0.0, "Patch_Score": 0.13234533760218775, "Occurrence_Score": 0.62853280800227718, "Selection_Score": 0.5160878145604465, "SurveyPriority": "Priority 1", "Site_ID": "V3-003", "Longitude": 110.37978692609468, "Latitude": -7.7910666075054902, "Field_Burung": "Not surveyed", "Field_Reptil": "Not surveyed", "Field_Amfibi": "Not surveyed", "Field_Mamalia": "Not surveyed", "Field_Visit_Count": 0, "Field_Notes": "", "Dist_DriveRoad_m": 5.0835733367913258, "Nearest_Road_Class": "primary", "Road_Access_Tier": "Vehicle-access likely", "Dist_WalkNetwork_m": 5.0835733367913249, "Access_Priority": "A", "Access_Class": "Easy", "Estimated_Access_Mode": "Vehicle-nearby", "Accessibility_Status": "PRELIMINARY OK", "Permission_Required": "Unknown", "Safety_Flag": "Check", "Reviewer_Decision": "Pending", "Reviewer_Notes": "", "Replacement_Site_ID": "", "Route_From_Base_m": null, "Preliminary_Access_Recommendation": "KEEP — access favorable", "Original_Model_Easting": 431617.3825099594, "Original_Model_Northing": 9138749.768681813, "Original_Model_Longitude": 110.37978692609468, "Original_Model_Latitude": -7.7910666075054902 }, "geometry": { "type": "Point", "coordinates": [ 110.379786926094681, -7.79106660750549 ] } },
{ "type": "Feature", "properties": { "Candidate_ID": "V3-02267", "row": 455, "col": 575, "HSI_Class": 3, "HabitatClass": "High", "Patch_ID": 2316, "Patch_Area_m2": 157500.0, "Patch_Area_Ha": 15.75, "LULC_T1_Code": 1, "LULC_T1": "Tree cover", "LULC_T2_Code": 1, "LULC_T2": "Tree cover", "LULC_Transition": "Tree cover → Tree cover", "LULC_Change_Class": "Stable", "NDVI_T1": 0.80041211843490601, "NDVI_T2": 0.76456141471862793, "Delta_NDVI": -0.035850703716278076, "NDVI_Change_Class": "Stable vegetation", "Integrated_Change_Class": "Stable", "Integrated_Change_Severity": 0, "Count_Burung_500m": 6, "Record_Burung": "Yes", "Oldest_Burung_Date": null, "Latest_Burung_Date": null, "PreChange_Burung": "No", "Recent_Burung": "No", "Dist_Burung_m": 60.103687016781429, "Count_Reptil_500m": 25, "Record_Reptil": "Yes", "Oldest_Reptil_Date": null, "Latest_Reptil_Date": null, "PreChange_Reptil": "No", "Recent_Reptil": "No", "Dist_Reptil_m": 135.06797906590663, "Count_Amfibi_500m": 7, "Record_Amfibi": "Yes", "Oldest_Amfibi_Date": null, "Latest_Amfibi_Date": null, "PreChange_Amfibi": "No", "Recent_Amfibi": "No", "Dist_Amfibi_m": 199.36352579242427, "Count_Mamalia_500m": 3, "Record_Mamalia": "Yes", "Oldest_Mamalia_Date": null, "Latest_Mamalia_Date": null, "PreChange_Mamalia": "No", "Recent_Mamalia": "No", "Dist_Mamalia_m": 187.51805593799705, "Historical_Taxa": "Burung, Reptil, Amfibi, Mamalia", "NoRecord_Taxa": "", "PreChange_Taxa": "", "Recent_Taxa": "", "Any_Historical_Record": "Yes", "Any_PreChange_Record": "No", "All_Taxa_NoRecord": "No", "Nearest_Record_Distance_m": 60.103687016781429, "Survey_Function": "Confirmatory presence", "Survey_Taxon_Targets": "Burung, Reptil, Amfibi, Mamalia", "Occurrence_Status": "HISTORICAL_PRESENCE_FOR_AT_LEAST_ONE_TAXON", "Integrated_Stratum": "High | Stable | Tree cover | HISTORICAL_PRESENCE_FOR_AT_LEAST_ONE_TAXON", "Function_Score": 0.75, "Change_Score": 0.35, "NDVI_Change_Score": 0.3, "LC_Rarity_Raw": 0.083333333333333329, "LandCover_Representation_Score": 0.16624193000339788, "Patch_Score": 0.49216547436952268, "Occurrence_Score": 0.87979262596643715, "Selection_Score": 0.48213209953410568, "SurveyPriority": "Priority 1", "Site_ID": "V3-004", "Longitude": 110.39699495034913, "Latitude": -7.807734527928992, "Field_Burung": "Not surveyed", "Field_Reptil": "Not surveyed", "Field_Amfibi": "Not surveyed", "Field_Mamalia": "Not surveyed", "Field_Visit_Count": 0, "Field_Notes": "", "Dist_DriveRoad_m": 7.7638631245779095, "Nearest_Road_Class": "trunk", "Road_Access_Tier": "Vehicle-access likely", "Dist_WalkNetwork_m": 6.8334294418062091, "Access_Priority": "A", "Access_Class": "Easy", "Estimated_Access_Mode": "Vehicle-nearby", "Accessibility_Status": "PRELIMINARY OK", "Permission_Required": "Unknown", "Safety_Flag": "Check", "Reviewer_Decision": "Pending", "Reviewer_Notes": "", "Replacement_Site_ID": "", "Route_From_Base_m": null, "Preliminary_Access_Recommendation": "KEEP — access favorable", "Original_Model_Easting": 433517.3825099594, "Original_Model_Northing": 9136909.768681813, "Original_Model_Longitude": 110.39699495034913, "Original_Model_Latitude": -7.807734527928992 }, "geometry": { "type": "Point", "coordinates": [ 110.396994950349125, -7.807734527928992 ] } },
{ "type": "Feature", "properties": { "Candidate_ID": "V3-00777", "row": 225, "col": 445, "HSI_Class": 3, "HabitatClass": "High", "Patch_ID": 2164, "Patch_Area_m2": 18700.0, "Patch_Area_Ha": 1.8700000047683716, "LULC_T1_Code": 4, "LULC_T1": "Built-up", "LULC_T2_Code": 4, "LULC_T2": "Built-up", "LULC_Transition": "Built-up → Built-up", "LULC_Change_Class": "Stable", "NDVI_T1": 0.67440509796142578, "NDVI_T2": 0.67194390296936035, "Delta_NDVI": -0.0024611949920654297, "NDVI_Change_Class": "Stable vegetation", "Integrated_Change_Class": "Stable", "Integrated_Change_Severity": 0, "Count_Burung_500m": 1, "Record_Burung": "Yes", "Oldest_Burung_Date": null, "Latest_Burung_Date": null, "PreChange_Burung": "No", "Recent_Burung": "No", "Dist_Burung_m": 154.58337369181581, "Count_Reptil_500m": 2, "Record_Reptil": "Yes", "Oldest_Reptil_Date": null, "Latest_Reptil_Date": null, "PreChange_Reptil": "No", "Recent_Reptil": "No", "Dist_Reptil_m": 331.36002384510203, "Count_Amfibi_500m": 2, "Record_Amfibi": "Yes", "Oldest_Amfibi_Date": null, "Latest_Amfibi_Date": null, "PreChange_Amfibi": "No", "Recent_Amfibi": "No", "Dist_Amfibi_m": 423.13196810922665, "Count_Mamalia_500m": 1, "Record_Mamalia": "Yes", "Oldest_Mamalia_Date": null, "Latest_Mamalia_Date": null, "PreChange_Mamalia": "No", "Recent_Mamalia": "No", "Dist_Mamalia_m": 439.40460778439348, "Historical_Taxa": "Burung, Reptil, Amfibi, Mamalia", "NoRecord_Taxa": "", "PreChange_Taxa": "", "Recent_Taxa": "", "Any_Historical_Record": "Yes", "Any_PreChange_Record": "No", "All_Taxa_NoRecord": "No", "Nearest_Record_Distance_m": 154.58337369181581, "Survey_Function": "Confirmatory presence", "Survey_Taxon_Targets": "Burung, Reptil, Amfibi, Mamalia", "Occurrence_Status": "HISTORICAL_PRESENCE_FOR_AT_LEAST_ONE_TAXON", "Integrated_Stratum": "High | Stable | Built-up | HISTORICAL_PRESENCE_FOR_AT_LEAST_ONE_TAXON", "Function_Score": 0.75, "Change_Score": 0.35, "NDVI_Change_Score": 0.3, "LC_Rarity_Raw": 0.00025471217524197657, "LandCover_Representation_Score": 0.0, "Patch_Score": 0.28484172182070466, "Occurrence_Score": 0.69083325261636841, "Selection_Score": 0.4175674974437073, "SurveyPriority": "Priority 1", "Site_ID": "V3-005", "Longitude": 110.38523462642129, "Latitude": -7.7869137809806714, "Field_Burung": "Not surveyed", "Field_Reptil": "Not surveyed", "Field_Amfibi": "Not surveyed", "Field_Mamalia": "Not surveyed", "Field_Visit_Count": 0, "Field_Notes": "", "Dist_DriveRoad_m": 8.6248209680735339, "Nearest_Road_Class": "tertiary", "Road_Access_Tier": "Vehicle-access likely", "Dist_WalkNetwork_m": 7.1354447363346614, "Access_Priority": "A", "Access_Class": "Easy", "Estimated_Access_Mode": "Vehicle-nearby", "Accessibility_Status": "PRELIMINARY OK", "Permission_Required": "Unknown", "Safety_Flag": "Check", "Reviewer_Decision": "Pending", "Reviewer_Notes": "", "Replacement_Site_ID": "", "Route_From_Base_m": null, "Preliminary_Access_Recommendation": "KEEP — access favorable", "Original_Model_Easting": 432217.3825099594, "Original_Model_Northing": 9139209.768681813, "Original_Model_Longitude": 110.38523462642129, "Original_Model_Latitude": -7.7869137809806714 }, "geometry": { "type": "Point", "coordinates": [ 110.385234626421294, -7.786913780980671 ] } },
{ "type": "Feature", "properties": { "Candidate_ID": "V3-00701", "row": 215, "col": 325, "HSI_Class": 3, "HabitatClass": "High", "Patch_ID": 2163, "Patch_Area_m2": 1000.0, "Patch_Area_Ha": 0.10000000149011612, "LULC_T1_Code": 4, "LULC_T1": "Built-up", "LULC_T2_Code": 4, "LULC_T2": "Built-up", "LULC_Transition": "Built-up → Built-up", "LULC_Change_Class": "Stable", "NDVI_T1": 0.66314733028411865, "NDVI_T2": 0.64558160305023193, "Delta_NDVI": -0.017565727233886719, "NDVI_Change_Class": "Stable vegetation", "Integrated_Change_Class": "Stable", "Integrated_Change_Severity": 0, "Count_Burung_500m": 7, "Record_Burung": "Yes", "Oldest_Burung_Date": null, "Latest_Burung_Date": null, "PreChange_Burung": "No", "Recent_Burung": "No", "Dist_Burung_m": 76.984472484507435, "Count_Reptil_500m": 3, "Record_Reptil": "Yes", "Oldest_Reptil_Date": null, "Latest_Reptil_Date": null, "PreChange_Reptil": "No", "Recent_Reptil": "No", "Dist_Reptil_m": 76.984472484507435, "Count_Amfibi_500m": 1, "Record_Amfibi": "Yes", "Oldest_Amfibi_Date": null, "Latest_Amfibi_Date": null, "PreChange_Amfibi": "No", "Recent_Amfibi": "No", "Dist_Amfibi_m": 354.51479043343056, "Count_Mamalia_500m": 1, "Record_Mamalia": "Yes", "Oldest_Mamalia_Date": null, "Latest_Mamalia_Date": null, "PreChange_Mamalia": "No", "Recent_Mamalia": "No", "Dist_Mamalia_m": 363.02034987182691, "Historical_Taxa": "Burung, Reptil, Amfibi, Mamalia", "NoRecord_Taxa": "", "PreChange_Taxa": "", "Recent_Taxa": "", "Any_Historical_Record": "Yes", "Any_PreChange_Record": "No", "All_Taxa_NoRecord": "No", "Nearest_Record_Distance_m": 76.984472484507435, "Survey_Function": "Confirmatory presence", "Survey_Taxon_Targets": "Burung, Reptil, Amfibi, Mamalia", "Occurrence_Status": "HISTORICAL_PRESENCE_FOR_AT_LEAST_ONE_TAXON", "Integrated_Stratum": "High | Stable | Built-up | HISTORICAL_PRESENCE_FOR_AT_LEAST_ONE_TAXON", "Function_Score": 0.75, "Change_Score": 0.35, "NDVI_Change_Score": 0.3, "LC_Rarity_Raw": 0.00025471217524197657, "LandCover_Representation_Score": 0.0, "Patch_Score": 0.0, "Occurrence_Score": 0.84603105503098508, "Selection_Score": 0.40460310550309853, "SurveyPriority": "Priority 1", "Site_ID": "V3-006", "Longitude": 110.37435281426229, "Latitude": -7.7859933510813528, "Field_Burung": "Not surveyed", "Field_Reptil": "Not surveyed", "Field_Amfibi": "Not surveyed", "Field_Mamalia": "Not surveyed", "Field_Visit_Count": 0, "Field_Notes": "", "Dist_DriveRoad_m": 9.2701660634263714, "Nearest_Road_Class": "residential", "Road_Access_Tier": "Vehicle-access likely", "Dist_WalkNetwork_m": 7.5999680256199458, "Access_Priority": "A", "Access_Class": "Easy", "Estimated_Access_Mode": "Vehicle-nearby", "Accessibility_Status": "PRELIMINARY OK", "Permission_Required": "Unknown", "Safety_Flag": "Check", "Reviewer_Decision": "Pending", "Reviewer_Notes": "", "Replacement_Site_ID": "", "Route_From_Base_m": null, "Preliminary_Access_Recommendation": "KEEP — access favorable", "Original_Model_Easting": 431017.3825099594, "Original_Model_Northing": 9139309.768681813, "Original_Model_Longitude": 110.37435281426229, "Original_Model_Latitude": -7.7859933510813528 }, "geometry": { "type": "Point", "coordinates": [ 110.374352814262295, -7.785993351081353 ] } },
{ "type": "Feature", "properties": { "Candidate_ID": "V3-02488", "row": 489, "col": 548, "HSI_Class": 3, "HabitatClass": "High", "Patch_ID": 2405, "Patch_Area_m2": 2000.0, "Patch_Area_Ha": 0.20000000298023224, "LULC_T1_Code": 4, "LULC_T1": "Built-up", "LULC_T2_Code": 4, "LULC_T2": "Built-up", "LULC_Transition": "Built-up → Built-up", "LULC_Change_Class": "Stable", "NDVI_T1": 0.64364433288574219, "NDVI_T2": 0.62415784597396851, "Delta_NDVI": -0.019486486911773682, "NDVI_Change_Class": "Stable vegetation", "Integrated_Change_Class": "Stable", "Integrated_Change_Severity": 0, "Count_Burung_500m": 4, "Record_Burung": "Yes", "Oldest_Burung_Date": null, "Latest_Burung_Date": null, "PreChange_Burung": "No", "Recent_Burung": "No", "Dist_Burung_m": 311.31389189042858, "Count_Reptil_500m": 9, "Record_Reptil": "Yes", "Oldest_Reptil_Date": null, "Latest_Reptil_Date": null, "PreChange_Reptil": "No", "Recent_Reptil": "No", "Dist_Reptil_m": 148.44236765898461, "Count_Amfibi_500m": 3, "Record_Amfibi": "Yes", "Oldest_Amfibi_Date": null, "Latest_Amfibi_Date": null, "PreChange_Amfibi": "No", "Recent_Amfibi": "No", "Dist_Amfibi_m": 296.28349049567004, "Count_Mamalia_500m": 2, "Record_Mamalia": "Yes", "Oldest_Mamalia_Date": null, "Latest_Mamalia_Date": null, "PreChange_Mamalia": "No", "Recent_Mamalia": "No", "Dist_Mamalia_m": 311.40260972860216, "Historical_Taxa": "Burung, Reptil, Amfibi, Mamalia", "NoRecord_Taxa": "", "PreChange_Taxa": "", "Recent_Taxa": "", "Any_Historical_Record": "Yes", "Any_PreChange_Record": "No", "All_Taxa_NoRecord": "No", "Nearest_Record_Distance_m": 148.44236765898461, "Survey_Function": "Confirmatory presence", "Survey_Taxon_Targets": "Burung, Reptil, Amfibi, Mamalia", "Occurrence_Status": "HISTORICAL_PRESENCE_FOR_AT_LEAST_ONE_TAXON", "Integrated_Stratum": "High | Stable | Built-up | HISTORICAL_PRESENCE_FOR_AT_LEAST_ONE_TAXON", "Function_Score": 0.75, "Change_Score": 0.35, "NDVI_Change_Score": 0.3, "LC_Rarity_Raw": 0.00025471217524197657, "LandCover_Representation_Score": 0.0, "Patch_Score": 0.067391870032513582, "Occurrence_Score": 0.70311526468203078, "Selection_Score": 0.39705071347145449, "SurveyPriority": "Priority 1", "Site_ID": "V3-007", "Longitude": 110.39454168440345, "Latitude": -7.8108063725984147, "Field_Burung": "Not surveyed", "Field_Reptil": "Not surveyed", "Field_Amfibi": "Not surveyed", "Field_Mamalia": "Not surveyed", "Field_Visit_Count": 0, "Field_Notes": "", "Dist_DriveRoad_m": 9.2701660634263714, "Nearest_Road_Class": "residential", "Road_Access_Tier": "Vehicle-access likely", "Dist_WalkNetwork_m": 7.7638631245779095, "Access_Priority": "A", "Access_Class": "Easy", "Estimated_Access_Mode": "Vehicle-nearby", "Accessibility_Status": "PRELIMINARY OK", "Permission_Required": "Unknown", "Safety_Flag": "Check", "Reviewer_Decision": "Pending", "Reviewer_Notes": "", "Replacement_Site_ID": "", "Route_From_Base_m": null, "Preliminary_Access_Recommendation": "KEEP — access favorable", "Original_Model_Easting": 433247.3825099594, "Original_Model_Northing": 9136569.768681813, "Original_Model_Longitude": 110.39454168440345, "Original_Model_Latitude": -7.8108063725984147 }, "geometry": { "type": "Point", "coordinates": [ 110.39454168440345, -7.810806372598415 ] } },
{ "type": "Feature", "properties": { "Candidate_ID": "V3-03899", "row": 749, "col": 553, "HSI_Class": 3, "HabitatClass": "High", "Patch_ID": 2639, "Patch_Area_m2": 12500.0, "Patch_Area_Ha": 1.25, "LULC_T1_Code": 4, "LULC_T1": "Built-up", "LULC_T2_Code": 4, "LULC_T2": "Built-up", "LULC_Transition": "Built-up → Built-up", "LULC_Change_Class": "Stable", "NDVI_T1": 0.82212841510772705, "NDVI_T2": 0.69612836837768555, "Delta_NDVI": -0.1260000467300415, "NDVI_Change_Class": "Moderate vegetation loss", "Integrated_Change_Class": "Changed-Degraded", "Integrated_Change_Severity": 1, "Count_Burung_500m": 0, "Record_Burung": "No", "Oldest_Burung_Date": null, "Latest_Burung_Date": null, "PreChange_Burung": "No", "Recent_Burung": "No", "Dist_Burung_m": 1348.1284318868238, "Count_Reptil_500m": 0, "Record_Reptil": "No", "Oldest_Reptil_Date": null, "Latest_Reptil_Date": null, "PreChange_Reptil": "No", "Recent_Reptil": "No", "Dist_Reptil_m": 1115.2063230455303, "Count_Amfibi_500m": 0, "Record_Amfibi": "No", "Oldest_Amfibi_Date": null, "Latest_Amfibi_Date": null, "PreChange_Amfibi": "No", "Recent_Amfibi": "No", "Dist_Amfibi_m": 1070.0046899107776, "Count_Mamalia_500m": 0, "Record_Mamalia": "No", "Oldest_Mamalia_Date": null, "Latest_Mamalia_Date": null, "PreChange_Mamalia": "No", "Recent_Mamalia": "No", "Dist_Mamalia_m": 2835.0761701040701, "Historical_Taxa": "", "NoRecord_Taxa": "Burung, Reptil, Amfibi, Mamalia", "PreChange_Taxa": "", "Recent_Taxa": "", "Any_Historical_Record": "No", "Any_PreChange_Record": "No", "All_Taxa_NoRecord": "Yes", "Nearest_Record_Distance_m": 1070.0046899107776, "Survey_Function": "Exploratory high-potential", "Survey_Taxon_Targets": "Burung, Reptil, Amfibi, Mamalia", "Occurrence_Status": "NO_HISTORICAL_RECORD_ALL_TARGET_TAXA", "Integrated_Stratum": "High | Changed-Degraded | Built-up | NO_HISTORICAL_RECORD_ALL_TARGET_TAXA", "Function_Score": 0.85, "Change_Score": 1.0, "NDVI_Change_Score": 0.85, "LC_Rarity_Raw": 0.00025471217524197657, "LandCover_Representation_Score": 0.0, "Patch_Score": 0.2456539522558091, "Occurrence_Score": 0.53500234495538879, "Selection_Score": 0.66806562972111982, "SurveyPriority": "Priority 1", "Site_ID": "V3-008", "Longitude": 110.3949612818967, "Latitude": -7.8343243421815831, "Field_Burung": "Not surveyed", "Field_Reptil": "Not surveyed", "Field_Amfibi": "Not surveyed", "Field_Mamalia": "Not surveyed", "Field_Visit_Count": 0, "Field_Notes": "", "Dist_DriveRoad_m": 9.8134531273632923, "Nearest_Road_Class": "residential|living_street", "Road_Access_Tier": "Vehicle-access likely", "Dist_WalkNetwork_m": 8.6248209680735322, "Access_Priority": "A", "Access_Class": "Easy", "Estimated_Access_Mode": "Vehicle-nearby", "Accessibility_Status": "PRELIMINARY OK", "Permission_Required": "Unknown", "Safety_Flag": "Check", "Reviewer_Decision": "Pending", "Reviewer_Notes": "", "Replacement_Site_ID": "", "Route_From_Base_m": null, "Preliminary_Access_Recommendation": "KEEP — access favorable", "Original_Model_Easting": 433297.3825099594, "Original_Model_Northing": 9133969.768681813, "Original_Model_Longitude": 110.3949612818967, "Original_Model_Latitude": -7.8343243421815831 }, "geometry": { "type": "Point", "coordinates": [ 110.394961281896698, -7.834324342181583 ] } },
{ "type": "Feature", "properties": { "Candidate_ID": "V3-02128", "row": 436, "col": 111, "HSI_Class": 3, "HabitatClass": "High", "Patch_ID": 2356, "Patch_Area_m2": 9800.0, "Patch_Area_Ha": 0.98000001907348633, "LULC_T1_Code": 4, "LULC_T1": "Built-up", "LULC_T2_Code": 1, "LULC_T2": "Tree cover", "LULC_Transition": "Built-up → Tree cover", "LULC_Change_Class": "Recovery", "NDVI_T1": 0.70566946268081665, "NDVI_T2": 0.80953127145767212, "Delta_NDVI": 0.10386180877685547, "NDVI_Change_Class": "Moderate vegetation gain", "Integrated_Change_Class": "Recovery", "Integrated_Change_Severity": 0, "Count_Burung_500m": 6, "Record_Burung": "Yes", "Oldest_Burung_Date": null, "Latest_Burung_Date": null, "PreChange_Burung": "No", "Recent_Burung": "No", "Dist_Burung_m": 263.08876036997924, "Count_Reptil_500m": 1, "Record_Reptil": "Yes", "Oldest_Reptil_Date": null, "Latest_Reptil_Date": null, "PreChange_Reptil": "No", "Recent_Reptil": "No", "Dist_Reptil_m": 342.84482401796225, "Count_Amfibi_500m": 0, "Record_Amfibi": "No", "Oldest_Amfibi_Date": null, "Latest_Amfibi_Date": null, "PreChange_Amfibi": "No", "Recent_Amfibi": "No", "Dist_Amfibi_m": 1197.5315158679311, "Count_Mamalia_500m": 0, "Record_Mamalia": "No", "Oldest_Mamalia_Date": null, "Latest_Mamalia_Date": null, "PreChange_Mamalia": "No", "Recent_Mamalia": "No", "Dist_Mamalia_m": 1197.5315158679311, "Historical_Taxa": "Burung, Reptil", "NoRecord_Taxa": "Amfibi, Mamalia", "PreChange_Taxa": "", "Recent_Taxa": "", "Any_Historical_Record": "Yes", "Any_PreChange_Record": "No", "All_Taxa_NoRecord": "No", "Nearest_Record_Distance_m": 263.08876036997924, "Survey_Function": "Exploratory high-potential", "Survey_Taxon_Targets": "Amfibi, Mamalia", "Occurrence_Status": "HISTORICAL_PRESENCE_FOR_AT_LEAST_ONE_TAXON", "Integrated_Stratum": "High | Recovery | Tree cover | HISTORICAL_PRESENCE_FOR_AT_LEAST_ONE_TAXON", "Function_Score": 0.85, "Change_Score": 0.65, "NDVI_Change_Score": 0.6, "LC_Rarity_Raw": 0.083333333333333329, "LandCover_Representation_Score": 0.16624193000339788, "Patch_Score": 0.22197946719737482, "Occurrence_Score": 0.59876575793396558, "Selection_Score": 0.57201081201364368, "SurveyPriority": "Priority 1", "Site_ID": "V3-009", "Longitude": 110.35491401104403, "Latitude": -7.8059538653771963, "Field_Burung": "Not surveyed", "Field_Reptil": "Not surveyed", "Field_Amfibi": "Not surveyed", "Field_Mamalia": "Not surveyed", "Field_Visit_Count": 0, "Field_Notes": "", "Dist_DriveRoad_m": 13.267786481108072, "Nearest_Road_Class": "residential", "Road_Access_Tier": "Vehicle-access likely", "Dist_WalkNetwork_m": 9.2701660634263714, "Access_Priority": "A", "Access_Class": "Easy", "Estimated_Access_Mode": "Vehicle-nearby", "Accessibility_Status": "PRELIMINARY OK", "Permission_Required": "Unknown", "Safety_Flag": "Check", "Reviewer_Decision": "Pending", "Reviewer_Notes": "", "Replacement_Site_ID": "", "Route_From_Base_m": null, "Preliminary_Access_Recommendation": "KEEP — access favorable", "Original_Model_Easting": 428877.3825099594, "Original_Model_Northing": 9137099.768681813, "Original_Model_Longitude": 110.35491401104403, "Original_Model_Latitude": -7.8059538653771963 }, "geometry": { "type": "Point", "coordinates": [ 110.354914011044031, -7.805953865377196 ] } },
{ "type": "Feature", "properties": { "Candidate_ID": "V3-00025", "row": 45, "col": 95, "HSI_Class": 3, "HabitatClass": "High", "Patch_ID": 2050, "Patch_Area_m2": 12000.0, "Patch_Area_Ha": 1.2000000476837158, "LULC_T1_Code": 4, "LULC_T1": "Built-up", "LULC_T2_Code": 1, "LULC_T2": "Tree cover", "LULC_Transition": "Built-up → Tree cover", "LULC_Change_Class": "Recovery", "NDVI_T1": 0.72117149829864502, "NDVI_T2": 0.74539810419082642, "Delta_NDVI": 0.024226605892181396, "NDVI_Change_Class": "Stable vegetation", "Integrated_Change_Class": "Recovery", "Integrated_Change_Severity": 0, "Count_Burung_500m": 1, "Record_Burung": "Yes", "Oldest_Burung_Date": null, "Latest_Burung_Date": null, "PreChange_Burung": "No", "Recent_Burung": "No", "Dist_Burung_m": 338.47039423895706, "Count_Reptil_500m": 1, "Record_Reptil": "Yes", "Oldest_Reptil_Date": null, "Latest_Reptil_Date": null, "PreChange_Reptil": "No", "Recent_Reptil": "No", "Dist_Reptil_m": 473.3258662867168, "Count_Amfibi_500m": 0, "Record_Amfibi": "No", "Oldest_Amfibi_Date": null, "Latest_Amfibi_Date": null, "PreChange_Amfibi": "No", "Recent_Amfibi": "No", "Dist_Amfibi_m": 1471.2639689514112, "Count_Mamalia_500m": 0, "Record_Mamalia": "No", "Oldest_Mamalia_Date": null, "Latest_Mamalia_Date": null, "PreChange_Mamalia": "No", "Recent_Mamalia": "No", "Dist_Mamalia_m": 1879.9346191463906, "Historical_Taxa": "Burung, Reptil", "NoRecord_Taxa": "Amfibi, Mamalia", "PreChange_Taxa": "", "Recent_Taxa": "", "Any_Historical_Record": "Yes", "Any_PreChange_Record": "No", "All_Taxa_NoRecord": "No", "Nearest_Record_Distance_m": 338.47039423895706, "Survey_Function": "Exploratory high-potential", "Survey_Taxon_Targets": "Amfibi, Mamalia", "Occurrence_Status": "HISTORICAL_PRESENCE_FOR_AT_LEAST_ONE_TAXON", "Integrated_Stratum": "High | Recovery | Tree cover | HISTORICAL_PRESENCE_FOR_AT_LEAST_ONE_TAXON", "Function_Score": 0.85, "Change_Score": 0.65, "NDVI_Change_Score": 0.3, "LC_Rarity_Raw": 0.083333333333333329, "LandCover_Representation_Score": 0.16624193000339788, "Patch_Score": 0.24168245779657013, "Occurrence_Score": 0.73563198447570566, "Selection_Score": 0.54266773372773736, "SurveyPriority": "Priority 1", "Site_ID": "V3-010", "Longitude": 110.35351709061999, "Latitude": -7.7705854423929379, "Field_Burung": "Not surveyed", "Field_Reptil": "Not surveyed", "Field_Amfibi": "Not surveyed", "Field_Mamalia": "Not surveyed", "Field_Visit_Count": 0, "Field_Notes": "", "Dist_DriveRoad_m": 15.700364935856381, "Nearest_Road_Class": "residential", "Road_Access_Tier": "Vehicle-access likely", "Dist_WalkNetwork_m": 9.8134531273632923, "Access_Priority": "A", "Access_Class": "Easy", "Estimated_Access_Mode": "Vehicle-nearby", "Accessibility_Status": "PRELIMINARY OK", "Permission_Required": "Unknown", "Safety_Flag": "Check", "Reviewer_Decision": "Pending", "Reviewer_Notes": "", "Replacement_Site_ID": "", "Route_From_Base_m": null, "Preliminary_Access_Recommendation": "KEEP — access favorable", "Original_Model_Easting": 428717.3825099594, "Original_Model_Northing": 9141009.768681813, "Original_Model_Longitude": 110.35351709061999, "Original_Model_Latitude": -7.7705854423929379 }, "geometry": { "type": "Point", "coordinates": [ 110.353517090619988, -7.770585442392938 ] } },
{ "type": "Feature", "properties": { "Candidate_ID": "V3-00557", "row": 190, "col": 75, "HSI_Class": 2, "HabitatClass": "Moderate", "Patch_ID": 292, "Patch_Area_m2": 23500.0, "Patch_Area_Ha": 2.3499999046325684, "LULC_T1_Code": 3, "LULC_T1": "Cropland", "LULC_T2_Code": 3, "LULC_T2": "Cropland", "LULC_Transition": "Cropland → Cropland", "LULC_Change_Class": "Stable", "NDVI_T1": 0.47969672083854675, "NDVI_T2": 0.35234099626541138, "Delta_NDVI": -0.12735572457313538, "NDVI_Change_Class": "Moderate vegetation loss", "Integrated_Change_Class": "Changed-Degraded", "Integrated_Change_Severity": 1, "Count_Burung_500m": 0, "Record_Burung": "No", "Oldest_Burung_Date": null, "Latest_Burung_Date": null, "PreChange_Burung": "No", "Recent_Burung": "No", "Dist_Burung_m": 637.52826151400654, "Count_Reptil_500m": 1, "Record_Reptil": "Yes", "Oldest_Reptil_Date": null, "Latest_Reptil_Date": null, "PreChange_Reptil": "No", "Recent_Reptil": "No", "Dist_Reptil_m": 450.38509867735689, "Count_Amfibi_500m": 1, "Record_Amfibi": "Yes", "Oldest_Amfibi_Date": null, "Latest_Amfibi_Date": null, "PreChange_Amfibi": "No", "Recent_Amfibi": "No", "Dist_Amfibi_m": 431.89692694241467, "Count_Mamalia_500m": 0, "Record_Mamalia": "No", "Oldest_Mamalia_Date": null, "Latest_Mamalia_Date": null, "PreChange_Mamalia": "No", "Recent_Mamalia": "No", "Dist_Mamalia_m": 504.60343920652116, "Historical_Taxa": "Reptil, Amfibi", "NoRecord_Taxa": "Burung, Mamalia", "PreChange_Taxa": "", "Recent_Taxa": "", "Any_Historical_Record": "Yes", "Any_PreChange_Record": "No", "All_Taxa_NoRecord": "No", "Nearest_Record_Distance_m": 431.89692694241467, "Survey_Function": "Change verification", "Survey_Taxon_Targets": "Reptil, Amfibi", "Occurrence_Status": "HISTORICAL_PRESENCE_FOR_AT_LEAST_ONE_TAXON", "Integrated_Stratum": "Moderate | Changed-Degraded | Cropland | HISTORICAL_PRESENCE_FOR_AT_LEAST_ONE_TAXON", "Function_Score": 1.0, "Change_Score": 1.0, "NDVI_Change_Score": 0.85, "LC_Rarity_Raw": 0.5, "LandCover_Representation_Score": 1.0, "Patch_Score": 0.30707055837925873, "Occurrence_Score": 0.13620614611517068, "Selection_Score": 0.82182767044944294, "SurveyPriority": "Priority 2", "Site_ID": "V3-011", "Longitude": 110.35168317553554, "Latitude": -7.7836980262538669, "Field_Burung": "Not surveyed", "Field_Reptil": "Not surveyed", "Field_Amfibi": "Not surveyed", "Field_Mamalia": "Not surveyed", "Field_Visit_Count": 0, "Field_Notes": "", "Dist_DriveRoad_m": 18.65756715838673, "Nearest_Road_Class": "residential", "Road_Access_Tier": "Vehicle-access likely", "Dist_WalkNetwork_m": 10.34363207787651, "Access_Priority": "A", "Access_Class": "Easy", "Estimated_Access_Mode": "Vehicle-nearby", "Accessibility_Status": "PRELIMINARY OK", "Permission_Required": "Unknown", "Safety_Flag": "Check", "Reviewer_Decision": "Pending", "Reviewer_Notes": "", "Replacement_Site_ID": "", "Route_From_Base_m": null, "Preliminary_Access_Recommendation": "KEEP — access favorable", "Original_Model_Easting": 428517.3825099594, "Original_Model_Northing": 9139559.768681813, "Original_Model_Longitude": 110.35168317553554, "Original_Model_Latitude": -7.7836980262538669 }, "geometry": { "type": "Point", "coordinates": [ 110.351683175535541, -7.783698026253867 ] } },
{ "type": "Feature", "properties": { "Candidate_ID": "V3-02062", "row": 430, "col": 408, "HSI_Class": 2, "HabitatClass": "Moderate", "Patch_ID": 994, "Patch_Area_m2": 46300.0, "Patch_Area_Ha": 4.630000114440918, "LULC_T1_Code": 4, "LULC_T1": "Built-up", "LULC_T2_Code": 4, "LULC_T2": "Built-up", "LULC_Transition": "Built-up → Built-up", "LULC_Change_Class": "Stable", "NDVI_T1": 0.7120327353477478, "NDVI_T2": 0.41267809271812439, "Delta_NDVI": -0.29935464262962341, "NDVI_Change_Class": "Strong vegetation loss", "Integrated_Change_Class": "Changed-Degraded", "Integrated_Change_Severity": 2, "Count_Burung_500m": 0, "Record_Burung": "No", "Oldest_Burung_Date": null, "Latest_Burung_Date": null, "PreChange_Burung": "No", "Recent_Burung": "No", "Dist_Burung_m": 701.86268284577454, "Count_Reptil_500m": 1, "Record_Reptil": "Yes", "Oldest_Reptil_Date": null, "Latest_Reptil_Date": null, "PreChange_Reptil": "No", "Recent_Reptil": "No", "Dist_Reptil_m": 318.13639842370185, "Count_Amfibi_500m": 1, "Record_Amfibi": "Yes", "Oldest_Amfibi_Date": null, "Latest_Amfibi_Date": null, "PreChange_Amfibi": "No", "Recent_Amfibi": "No", "Dist_Amfibi_m": 7.6438561063880774, "Count_Mamalia_500m": 1, "Record_Mamalia": "Yes", "Oldest_Mamalia_Date": null, "Latest_Mamalia_Date": null, "PreChange_Mamalia": "No", "Recent_Mamalia": "No", "Dist_Mamalia_m": 456.91861509949626, "Historical_Taxa": "Reptil, Amfibi, Mamalia", "NoRecord_Taxa": "Burung", "PreChange_Taxa": "", "Recent_Taxa": "", "Any_Historical_Record": "Yes", "Any_PreChange_Record": "No", "All_Taxa_NoRecord": "No", "Nearest_Record_Distance_m": 7.6438561063880774, "Survey_Function": "Change verification", "Survey_Taxon_Targets": "Reptil, Amfibi, Mamalia", "Occurrence_Status": "HISTORICAL_PRESENCE_FOR_AT_LEAST_ONE_TAXON", "Integrated_Stratum": "Moderate | Changed-Degraded | Built-up | HISTORICAL_PRESENCE_FOR_AT_LEAST_ONE_TAXON", "Function_Score": 1.0, "Change_Score": 1.0, "NDVI_Change_Score": 1.0, "LC_Rarity_Raw": 0.00025471217524197657, "LandCover_Representation_Score": 0.0, "Patch_Score": 0.37304901167763649, "Occurrence_Score": 0.98471228778722386, "Selection_Score": 0.78577612994648605, "SurveyPriority": "Priority 2", "Site_ID": "V3-012", "Longitude": 110.38185177457297, "Latitude": -7.8054513822800944, "Field_Burung": "Not surveyed", "Field_Reptil": "Not surveyed", "Field_Amfibi": "Not surveyed", "Field_Mamalia": "Not surveyed", "Field_Visit_Count": 0, "Field_Notes": "", "Dist_DriveRoad_m": 19.684189592772576, "Nearest_Road_Class": "residential", "Road_Access_Tier": "Vehicle-access likely", "Dist_WalkNetwork_m": 13.267786481108072, "Access_Priority": "A", "Access_Class": "Easy", "Estimated_Access_Mode": "Vehicle-nearby", "Accessibility_Status": "PRELIMINARY OK", "Permission_Required": "Unknown", "Safety_Flag": "Check", "Reviewer_Decision": "Pending", "Reviewer_Notes": "", "Replacement_Site_ID": "", "Route_From_Base_m": null, "Preliminary_Access_Recommendation": "KEEP — access favorable", "Original_Model_Easting": 431847.3825099594, "Original_Model_Northing": 9137159.768681813, "Original_Model_Longitude": 110.38185177457297, "Original_Model_Latitude": -7.8054513822800944 }, "geometry": { "type": "Point", "coordinates": [ 110.381851774572965, -7.805451382280094 ] } },
{ "type": "Feature", "properties": { "Candidate_ID": "V3-01942", "row": 415, "col": 225, "HSI_Class": 2, "HabitatClass": "Moderate", "Patch_ID": 940, "Patch_Area_m2": 56500.0, "Patch_Area_Ha": 5.6500000953674316, "LULC_T1_Code": 3, "LULC_T1": "Cropland", "LULC_T2_Code": 4, "LULC_T2": "Built-up", "LULC_Transition": "Cropland → Built-up", "LULC_Change_Class": "Changed-Degraded", "NDVI_T1": 0.20723055303096771, "NDVI_T2": -0.0019612815231084824, "Delta_NDVI": -0.20919182896614075, "NDVI_Change_Class": "Strong vegetation loss", "Integrated_Change_Class": "Changed-Degraded", "Integrated_Change_Severity": 3, "Count_Burung_500m": 41, "Record_Burung": "Yes", "Oldest_Burung_Date": null, "Latest_Burung_Date": null, "PreChange_Burung": "No", "Recent_Burung": "No", "Dist_Burung_m": 75.616427674915485, "Count_Reptil_500m": 8, "Record_Reptil": "Yes", "Oldest_Reptil_Date": null, "Latest_Reptil_Date": null, "PreChange_Reptil": "No", "Recent_Reptil": "No", "Dist_Reptil_m": 196.41420071046801, "Count_Amfibi_500m": 5, "Record_Amfibi": "Yes", "Oldest_Amfibi_Date": null, "Latest_Amfibi_Date": null, "PreChange_Amfibi": "No", "Recent_Amfibi": "No", "Dist_Amfibi_m": 304.77071382540061, "Count_Mamalia_500m": 1, "Record_Mamalia": "Yes", "Oldest_Mamalia_Date": null, "Latest_Mamalia_Date": null, "PreChange_Mamalia": "No", "Recent_Mamalia": "No", "Dist_Mamalia_m": 304.77071382540061, "Historical_Taxa": "Burung, Reptil, Amfibi, Mamalia", "NoRecord_Taxa": "", "PreChange_Taxa": "", "Recent_Taxa": "", "Any_Historical_Record": "Yes", "Any_PreChange_Record": "No", "All_Taxa_NoRecord": "No", "Nearest_Record_Distance_m": 75.616427674915485, "Survey_Function": "Change verification", "Survey_Taxon_Targets": "Burung, Reptil, Amfibi, Mamalia", "Occurrence_Status": "HISTORICAL_PRESENCE_FOR_AT_LEAST_ONE_TAXON", "Integrated_Stratum": "Moderate | Changed-Degraded | Built-up | HISTORICAL_PRESENCE_FOR_AT_LEAST_ONE_TAXON", "Function_Score": 1.0, "Change_Score": 1.0, "NDVI_Change_Score": 1.0, "LC_Rarity_Raw": 0.00025471217524197657, "LandCover_Representation_Score": 0.0, "Patch_Score": 0.39242014682379361, "Occurrence_Score": 0.848767144650169, "Selection_Score": 0.77411872914739621, "SurveyPriority": "Priority 2", "Site_ID": "V3-013", "Longitude": 110.36525630121766, "Latitude": -7.8040700407666073, "Field_Burung": "Not surveyed", "Field_Reptil": "Not surveyed", "Field_Amfibi": "Not surveyed", "Field_Mamalia": "Not surveyed", "Field_Visit_Count": 0, "Field_Notes": "", "Dist_DriveRoad_m": 20.002265816442566, "Nearest_Road_Class": "living_street", "Road_Access_Tier": "Vehicle-access likely", "Dist_WalkNetwork_m": 13.267786481108072, "Access_Priority": "A", "Access_Class": "Easy", "Estimated_Access_Mode": "Vehicle-nearby", "Accessibility_Status": "PRELIMINARY OK", "Permission_Required": "Unknown", "Safety_Flag": "Check", "Reviewer_Decision": "Pending", "Reviewer_Notes": "", "Replacement_Site_ID": "", "Route_From_Base_m": null, "Preliminary_Access_Recommendation": "KEEP — access favorable", "Original_Model_Easting": 430017.3825099594, "Original_Model_Northing": 9137309.768681813, "Original_Model_Longitude": 110.36525630121766, "Original_Model_Latitude": -7.8040700407666073 }, "geometry": { "type": "Point", "coordinates": [ 110.365256301217656, -7.804070040766607 ] } },
{ "type": "Feature", "properties": { "Candidate_ID": "V3-00708", "row": 215, "col": 405, "HSI_Class": 2, "HabitatClass": "Moderate", "Patch_ID": 389, "Patch_Area_m2": 33100.0, "Patch_Area_Ha": 3.309999942779541, "LULC_T1_Code": 4, "LULC_T1": "Built-up", "LULC_T2_Code": 4, "LULC_T2": "Built-up", "LULC_Transition": "Built-up → Built-up", "LULC_Change_Class": "Stable", "NDVI_T1": 0.087696701288223267, "NDVI_T2": 0.39351958036422729, "Delta_NDVI": 0.30582287907600403, "NDVI_Change_Class": "Strong vegetation gain", "Integrated_Change_Class": "Recovery", "Integrated_Change_Severity": 0, "Count_Burung_500m": 1, "Record_Burung": "Yes", "Oldest_Burung_Date": null, "Latest_Burung_Date": null, "PreChange_Burung": "No", "Recent_Burung": "No", "Dist_Burung_m": 420.8253769698411, "Count_Reptil_500m": 3, "Record_Reptil": "Yes", "Oldest_Reptil_Date": null, "Latest_Reptil_Date": null, "PreChange_Reptil": "No", "Recent_Reptil": "No", "Dist_Reptil_m": 404.25882242164988, "Count_Amfibi_500m": 2, "Record_Amfibi": "Yes", "Oldest_Amfibi_Date": null, "Latest_Amfibi_Date": null, "PreChange_Amfibi": "No", "Recent_Amfibi": "No", "Dist_Amfibi_m": 239.01036426335497, "Count_Mamalia_500m": 2, "Record_Mamalia": "Yes", "Oldest_Mamalia_Date": null, "Latest_Mamalia_Date": null, "PreChange_Mamalia": "No", "Recent_Mamalia": "No", "Dist_Mamalia_m": 291.30360910045908, "Historical_Taxa": "Burung, Reptil, Amfibi, Mamalia", "NoRecord_Taxa": "", "PreChange_Taxa": "", "Recent_Taxa": "", "Any_Historical_Record": "Yes", "Any_PreChange_Record": "No", "All_Taxa_NoRecord": "No", "Nearest_Record_Distance_m": 239.01036426335497, "Survey_Function": "Confirmatory presence", "Survey_Taxon_Targets": "Burung, Reptil, Amfibi, Mamalia", "Occurrence_Status": "HISTORICAL_PRESENCE_FOR_AT_LEAST_ONE_TAXON", "Integrated_Stratum": "Moderate | Recovery | Built-up | HISTORICAL_PRESENCE_FOR_AT_LEAST_ONE_TAXON", "Function_Score": 0.75, "Change_Score": 0.65, "NDVI_Change_Score": 0.7, "LC_Rarity_Raw": 0.00025471217524197657, "LandCover_Representation_Score": 0.0, "Patch_Score": 0.34039645145397179, "Occurrence_Score": 0.52197927147329004, "Selection_Score": 0.54123757229272618, "SurveyPriority": "Priority 2", "Site_ID": "V3-014", "Longitude": 110.38160823210848, "Latitude": -7.7860039939034982, "Field_Burung": "Not surveyed", "Field_Reptil": "Not surveyed", "Field_Amfibi": "Not surveyed", "Field_Mamalia": "Not surveyed", "Field_Visit_Count": 0, "Field_Notes": "", "Dist_DriveRoad_m": 20.002265816442566, "Nearest_Road_Class": "living_street", "Road_Access_Tier": "Vehicle-access likely", "Dist_WalkNetwork_m": 15.700364935856381, "Access_Priority": "A", "Access_Class": "Easy", "Estimated_Access_Mode": "Vehicle-nearby", "Accessibility_Status": "PRELIMINARY OK", "Permission_Required": "Unknown", "Safety_Flag": "Check", "Reviewer_Decision": "Pending", "Reviewer_Notes": "", "Replacement_Site_ID": "", "Route_From_Base_m": null, "Preliminary_Access_Recommendation": "KEEP — access favorable", "Original_Model_Easting": 431817.3825099594, "Original_Model_Northing": 9139309.768681813, "Original_Model_Longitude": 110.38160823210848, "Original_Model_Latitude": -7.7860039939034982 }, "geometry": { "type": "Point", "coordinates": [ 110.381608232108476, -7.786003993903498 ] } },
{ "type": "Feature", "properties": { "Candidate_ID": "V3-01971", "row": 415, "col": 525, "HSI_Class": 2, "HabitatClass": "Moderate", "Patch_ID": 1010, "Patch_Area_m2": 11900.0, "Patch_Area_Ha": 1.190000057220459, "LULC_T1_Code": 4, "LULC_T1": "Built-up", "LULC_T2_Code": 4, "LULC_T2": "Built-up", "LULC_Transition": "Built-up → Built-up", "LULC_Change_Class": "Stable", "NDVI_T1": 0.37417227029800415, "NDVI_T2": 0.58670306205749512, "Delta_NDVI": 0.21253079175949097, "NDVI_Change_Class": "Strong vegetation gain", "Integrated_Change_Class": "Recovery", "Integrated_Change_Severity": 0, "Count_Burung_500m": 5, "Record_Burung": "Yes", "Oldest_Burung_Date": null, "Latest_Burung_Date": null, "PreChange_Burung": "No", "Recent_Burung": "No", "Dist_Burung_m": 234.50735196132891, "Count_Reptil_500m": 16, "Record_Reptil": "Yes", "Oldest_Reptil_Date": null, "Latest_Reptil_Date": null, "PreChange_Reptil": "No", "Recent_Reptil": "No", "Dist_Reptil_m": 221.63380652168405, "Count_Amfibi_500m": 4, "Record_Amfibi": "Yes", "Oldest_Amfibi_Date": null, "Latest_Amfibi_Date": null, "PreChange_Amfibi": "No", "Recent_Amfibi": "No", "Dist_Amfibi_m": 444.87615594962716, "Count_Mamalia_500m": 2, "Record_Mamalia": "Yes", "Oldest_Mamalia_Date": null, "Latest_Mamalia_Date": null, "PreChange_Mamalia": "No", "Recent_Mamalia": "No", "Dist_Mamalia_m": 484.08300616175035, "Historical_Taxa": "Burung, Reptil, Amfibi, Mamalia", "NoRecord_Taxa": "", "PreChange_Taxa": "", "Recent_Taxa": "", "Any_Historical_Record": "Yes", "Any_PreChange_Record": "No", "All_Taxa_NoRecord": "No", "Nearest_Record_Distance_m": 221.63380652168405, "Survey_Function": "Confirmatory presence", "Survey_Taxon_Targets": "Burung, Reptil, Amfibi, Mamalia", "Occurrence_Status": "HISTORICAL_PRESENCE_FOR_AT_LEAST_ONE_TAXON", "Integrated_Stratum": "Moderate | Recovery | Built-up | HISTORICAL_PRESENCE_FOR_AT_LEAST_ONE_TAXON", "Function_Score": 0.75, "Change_Score": 0.65, "NDVI_Change_Score": 0.7, "LC_Rarity_Raw": 0.00025471217524197657, "LandCover_Representation_Score": 0.0, "Patch_Score": 0.24086832830074142, "Occurrence_Score": 0.55673238695663185, "Selection_Score": 0.53476007152573735, "SurveyPriority": "Priority 2", "Site_ID": "V3-015", "Longitude": 110.39246529083145, "Latitude": -7.8041099868685029, "Field_Burung": "Not surveyed", "Field_Reptil": "Not surveyed", "Field_Amfibi": "Not surveyed", "Field_Mamalia": "Not surveyed", "Field_Visit_Count": 0, "Field_Notes": "", "Dist_DriveRoad_m": 20.914439377297843, "Nearest_Road_Class": "living_street", "Road_Access_Tier": "Vehicle-access likely", "Dist_WalkNetwork_m": 18.65756715838673, "Access_Priority": "A", "Access_Class": "Easy", "Estimated_Access_Mode": "Vehicle-nearby", "Accessibility_Status": "PRELIMINARY OK", "Permission_Required": "Unknown", "Safety_Flag": "Check", "Reviewer_Decision": "Pending", "Reviewer_Notes": "", "Replacement_Site_ID": "", "Route_From_Base_m": null, "Preliminary_Access_Recommendation": "KEEP — access favorable", "Original_Model_Easting": 433017.3825099594, "Original_Model_Northing": 9137309.768681813, "Original_Model_Longitude": 110.39246529083145, "Original_Model_Latitude": -7.8041099868685029 }, "geometry": { "type": "Point", "coordinates": [ 110.392465290831453, -7.804109986868503 ] } },
{ "type": "Feature", "properties": { "Candidate_ID": "V3-01712", "row": 378, "col": 258, "HSI_Class": 2, "HabitatClass": "Moderate", "Patch_ID": 867, "Patch_Area_m2": 1800.0, "Patch_Area_Ha": 0.18000000715255737, "LULC_T1_Code": 4, "LULC_T1": "Built-up", "LULC_T2_Code": 4, "LULC_T2": "Built-up", "LULC_Transition": "Built-up → Built-up", "LULC_Change_Class": "Stable", "NDVI_T1": 0.41789263486862183, "NDVI_T2": 0.55553466081619263, "Delta_NDVI": 0.1376420259475708, "NDVI_Change_Class": "Moderate vegetation gain", "Integrated_Change_Class": "Recovery", "Integrated_Change_Severity": 0, "Count_Burung_500m": 56, "Record_Burung": "Yes", "Oldest_Burung_Date": null, "Latest_Burung_Date": null, "PreChange_Burung": "No", "Recent_Burung": "No", "Dist_Burung_m": 100.41843359025744, "Count_Reptil_500m": 13, "Record_Reptil": "Yes", "Oldest_Reptil_Date": null, "Latest_Reptil_Date": null, "PreChange_Reptil": "No", "Recent_Reptil": "No", "Dist_Reptil_m": 193.21577163113454, "Count_Amfibi_500m": 9, "Record_Amfibi": "Yes", "Oldest_Amfibi_Date": null, "Latest_Amfibi_Date": null, "PreChange_Amfibi": "No", "Recent_Amfibi": "No", "Dist_Amfibi_m": 149.1199096405328, "Count_Mamalia_500m": 1, "Record_Mamalia": "Yes", "Oldest_Mamalia_Date": null, "Latest_Mamalia_Date": null, "PreChange_Mamalia": "No", "Recent_Mamalia": "No", "Dist_Mamalia_m": 392.65006957890279, "Historical_Taxa": "Burung, Reptil, Amfibi, Mamalia", "NoRecord_Taxa": "", "PreChange_Taxa": "", "Recent_Taxa": "", "Any_Historical_Record": "Yes", "Any_PreChange_Record": "No", "All_Taxa_NoRecord": "No", "Nearest_Record_Distance_m": 100.41843359025744, "Survey_Function": "Confirmatory presence", "Survey_Taxon_Targets": "Burung, Reptil, Amfibi, Mamalia", "Occurrence_Status": "HISTORICAL_PRESENCE_FOR_AT_LEAST_ONE_TAXON", "Integrated_Stratum": "Moderate | Recovery | Built-up | HISTORICAL_PRESENCE_FOR_AT_LEAST_ONE_TAXON", "Function_Score": 0.75, "Change_Score": 0.65, "NDVI_Change_Score": 0.6, "LC_Rarity_Raw": 0.00025471217524197657, "LandCover_Representation_Score": 0.0, "Patch_Score": 0.057146110690747001, "Occurrence_Score": 0.79916313281948514, "Selection_Score": 0.52563092435102321, "SurveyPriority": "Priority 2", "Site_ID": "V3-016", "Longitude": 110.36825430634188, "Latitude": -7.8007278386690668, "Field_Burung": "Not surveyed", "Field_Reptil": "Not surveyed", "Field_Amfibi": "Not surveyed", "Field_Mamalia": "Not surveyed", "Field_Visit_Count": 0, "Field_Notes": "", "Dist_DriveRoad_m": 28.5225022277933, "Nearest_Road_Class": "residential", "Road_Access_Tier": "Vehicle-access likely", "Dist_WalkNetwork_m": 19.684189592772576, "Access_Priority": "A", "Access_Class": "Easy", "Estimated_Access_Mode": "Vehicle-nearby", "Accessibility_Status": "PRELIMINARY OK", "Permission_Required": "Unknown", "Safety_Flag": "Check", "Reviewer_Decision": "Pending", "Reviewer_Notes": "", "Replacement_Site_ID": "", "Route_From_Base_m": null, "Preliminary_Access_Recommendation": "KEEP — access favorable", "Original_Model_Easting": 430347.3825099594, "Original_Model_Northing": 9137679.768681813, "Original_Model_Longitude": 110.36825430634188, "Original_Model_Latitude": -7.8007278386690668 }, "geometry": { "type": "Point", "coordinates": [ 110.368254306341882, -7.800727838669067 ] } },
{ "type": "Feature", "properties": { "Candidate_ID": "V3-00855", "row": 244, "col": 171, "HSI_Class": 2, "HabitatClass": "Moderate", "Patch_ID": 481, "Patch_Area_m2": 1400.0, "Patch_Area_Ha": 0.14000000059604645, "LULC_T1_Code": 4, "LULC_T1": "Built-up", "LULC_T2_Code": 4, "LULC_T2": "Built-up", "LULC_Transition": "Built-up → Built-up", "LULC_Change_Class": "Stable", "NDVI_T1": 0.38112786412239075, "NDVI_T2": 0.48322665691375732, "Delta_NDVI": 0.10209879279136658, "NDVI_Change_Class": "Moderate vegetation gain", "Integrated_Change_Class": "Recovery", "Integrated_Change_Severity": 0, "Count_Burung_500m": 2, "Record_Burung": "Yes", "Oldest_Burung_Date": null, "Latest_Burung_Date": null, "PreChange_Burung": "No", "Recent_Burung": "No", "Dist_Burung_m": 347.84249188282172, "Count_Reptil_500m": 2, "Record_Reptil": "Yes", "Oldest_Reptil_Date": null, "Latest_Reptil_Date": null, "PreChange_Reptil": "No", "Recent_Reptil": "No", "Dist_Reptil_m": 95.50009329590813, "Count_Amfibi_500m": 1, "Record_Amfibi": "Yes", "Oldest_Amfibi_Date": null, "Latest_Amfibi_Date": null, "PreChange_Amfibi": "No", "Recent_Amfibi": "No", "Dist_Amfibi_m": 466.40769430162158, "Count_Mamalia_500m": 1, "Record_Mamalia": "Yes", "Oldest_Mamalia_Date": null, "Latest_Mamalia_Date": null, "PreChange_Mamalia": "No", "Recent_Mamalia": "No", "Dist_Mamalia_m": 297.12996048773005, "Historical_Taxa": "Burung, Reptil, Amfibi, Mamalia", "NoRecord_Taxa": "", "PreChange_Taxa": "", "Recent_Taxa": "", "Any_Historical_Record": "Yes", "Any_PreChange_Record": "No", "All_Taxa_NoRecord": "No", "Nearest_Record_Distance_m": 95.50009329590813, "Survey_Function": "Confirmatory presence", "Survey_Taxon_Targets": "Burung, Reptil, Amfibi, Mamalia", "Occurrence_Status": "HISTORICAL_PRESENCE_FOR_AT_LEAST_ONE_TAXON", "Integrated_Stratum": "Moderate | Recovery | Built-up | HISTORICAL_PRESENCE_FOR_AT_LEAST_ONE_TAXON", "Function_Score": 0.75, "Change_Score": 0.65, "NDVI_Change_Score": 0.6, "LC_Rarity_Raw": 0.00025471217524197657, "LandCover_Representation_Score": 0.0, "Patch_Score": 0.032709643941499472, "Occurrence_Score": 0.80899981340818372, "Selection_Score": 0.52417094573496825, "SurveyPriority": "Priority 2", "Site_ID": "V3-017", "Longitude": 110.36038218553861, "Latitude": -7.7885955869865438, "Field_Burung": "Not surveyed", "Field_Reptil": "Not surveyed", "Field_Amfibi": "Not surveyed", "Field_Mamalia": "Not surveyed", "Field_Visit_Count": 0, "Field_Notes": "", "Dist_DriveRoad_m": 28.5225022277933, "Nearest_Road_Class": "residential", "Road_Access_Tier": "Vehicle-access likely", "Dist_WalkNetwork_m": 20.002265816442566, "Access_Priority": "A", "Access_Class": "Easy", "Estimated_Access_Mode": "Vehicle-nearby", "Accessibility_Status": "PRELIMINARY OK", "Permission_Required": "Unknown", "Safety_Flag": "Check", "Reviewer_Decision": "Pending", "Reviewer_Notes": "", "Replacement_Site_ID": "", "Route_From_Base_m": null, "Preliminary_Access_Recommendation": "KEEP — access favorable", "Original_Model_Easting": 429477.3825099594, "Original_Model_Northing": 9139019.768681813, "Original_Model_Longitude": 110.36038218553861, "Original_Model_Latitude": -7.7885955869865438 }, "geometry": { "type": "Point", "coordinates": [ 110.360382185538612, -7.788595586986544 ] } },
{ "type": "Feature", "properties": { "Candidate_ID": "V3-03906", "row": 755, "col": 485, "HSI_Class": 2, "HabitatClass": "Moderate", "Patch_ID": 2022, "Patch_Area_m2": 19500.0, "Patch_Area_Ha": 1.9500000476837158, "LULC_T1_Code": 4, "LULC_T1": "Built-up", "LULC_T2_Code": 4, "LULC_T2": "Built-up", "LULC_Transition": "Built-up → Built-up", "LULC_Change_Class": "Stable", "NDVI_T1": 0.48082298040390015, "NDVI_T2": 0.35794860124588013, "Delta_NDVI": -0.12287437915802002, "NDVI_Change_Class": "Moderate vegetation loss", "Integrated_Change_Class": "Changed-Degraded", "Integrated_Change_Severity": 1, "Count_Burung_500m": 0, "Record_Burung": "No", "Oldest_Burung_Date": null, "Latest_Burung_Date": null, "PreChange_Burung": "No", "Recent_Burung": "No", "Dist_Burung_m": 1425.3417249367546, "Count_Reptil_500m": 0, "Record_Reptil": "No", "Oldest_Reptil_Date": null, "Latest_Reptil_Date": null, "PreChange_Reptil": "No", "Recent_Reptil": "No", "Dist_Reptil_m": 1304.2669839553171, "Count_Amfibi_500m": 0, "Record_Amfibi": "No", "Oldest_Amfibi_Date": null, "Latest_Amfibi_Date": null, "PreChange_Amfibi": "No", "Recent_Amfibi": "No", "Dist_Amfibi_m": 1426.6771246019528, "Count_Mamalia_500m": 0, "Record_Mamalia": "No", "Oldest_Mamalia_Date": null, "Latest_Mamalia_Date": null, "PreChange_Mamalia": "No", "Recent_Mamalia": "No", "Dist_Mamalia_m": 3036.373158756458, "Historical_Taxa": "", "NoRecord_Taxa": "Burung, Reptil, Amfibi, Mamalia", "PreChange_Taxa": "", "Recent_Taxa": "", "Any_Historical_Record": "No", "Any_PreChange_Record": "No", "All_Taxa_NoRecord": "Yes", "Nearest_Record_Distance_m": 1304.2669839553171, "Survey_Function": "Exploratory high-potential", "Survey_Taxon_Targets": "Burung, Reptil, Amfibi, Mamalia", "Occurrence_Status": "NO_HISTORICAL_RECORD_ALL_TARGET_TAXA", "Integrated_Stratum": "Moderate | Changed-Degraded | Built-up | NO_HISTORICAL_RECORD_ALL_TARGET_TAXA", "Function_Score": 0.85, "Change_Score": 1.0, "NDVI_Change_Score": 0.85, "LC_Rarity_Raw": 0.00025471217524197657, "LandCover_Representation_Score": 0.0, "Patch_Score": 0.28891733146588777, "Occurrence_Score": 0.65213349197765857, "Selection_Score": 0.68410508234435463, "SurveyPriority": "Priority 2", "Site_ID": "V3-018", "Longitude": 110.38879266040375, "Latitude": -7.834858149815215, "Field_Burung": "Not surveyed", "Field_Reptil": "Not surveyed", "Field_Amfibi": "Not surveyed", "Field_Mamalia": "Not surveyed", "Field_Visit_Count": 0, "Field_Notes": "", "Dist_DriveRoad_m": 31.143364882328552, "Nearest_Road_Class": "residential", "Road_Access_Tier": "Vehicle-access likely", "Dist_WalkNetwork_m": 20.914439377297843, "Access_Priority": "A", "Access_Class": "Easy", "Estimated_Access_Mode": "Vehicle-nearby", "Accessibility_Status": "PRELIMINARY OK", "Permission_Required": "Unknown", "Safety_Flag": "Check", "Reviewer_Decision": "Pending", "Reviewer_Notes": "", "Replacement_Site_ID": "", "Route_From_Base_m": null, "Preliminary_Access_Recommendation": "KEEP — access favorable", "Original_Model_Easting": 432617.3825099594, "Original_Model_Northing": 9133909.768681813, "Original_Model_Longitude": 110.38879266040375, "Original_Model_Latitude": -7.834858149815215 }, "geometry": { "type": "Point", "coordinates": [ 110.388792660403752, -7.834858149815215 ] } },
{ "type": "Feature", "properties": { "Candidate_ID": "V3-03841", "row": 720, "col": 644, "HSI_Class": 2, "HabitatClass": "Moderate", "Patch_ID": 1973, "Patch_Area_m2": 5900.0, "Patch_Area_Ha": 0.5899999737739563, "LULC_T1_Code": 4, "LULC_T1": "Built-up", "LULC_T2_Code": 4, "LULC_T2": "Built-up", "LULC_Transition": "Built-up → Built-up", "LULC_Change_Class": "Stable", "NDVI_T1": 0.6202736496925354, "NDVI_T2": 0.29426217079162598, "Delta_NDVI": -0.32601147890090942, "NDVI_Change_Class": "Strong vegetation loss", "Integrated_Change_Class": "Changed-Degraded", "Integrated_Change_Severity": 2, "Count_Burung_500m": 0, "Record_Burung": "No", "Oldest_Burung_Date": null, "Latest_Burung_Date": null, "PreChange_Burung": "No", "Recent_Burung": "No", "Dist_Burung_m": 836.01298736868387, "Count_Reptil_500m": 0, "Record_Reptil": "No", "Oldest_Reptil_Date": null, "Latest_Reptil_Date": null, "PreChange_Reptil": "No", "Recent_Reptil": "No", "Dist_Reptil_m": 1160.1025992267289, "Count_Amfibi_500m": 0, "Record_Amfibi": "No", "Oldest_Amfibi_Date": null, "Latest_Amfibi_Date": null, "PreChange_Amfibi": "No", "Recent_Amfibi": "No", "Dist_Amfibi_m": 557.64741796282158, "Count_Mamalia_500m": 0, "Record_Mamalia": "No", "Oldest_Mamalia_Date": null, "Latest_Mamalia_Date": null, "PreChange_Mamalia": "No", "Recent_Mamalia": "No", "Dist_Mamalia_m": 2582.2595079809489, "Historical_Taxa": "", "NoRecord_Taxa": "Burung, Reptil, Amfibi, Mamalia", "PreChange_Taxa": "", "Recent_Taxa": "", "Any_Historical_Record": "No", "Any_PreChange_Record": "No", "All_Taxa_NoRecord": "Yes", "Nearest_Record_Distance_m": 557.64741796282158, "Survey_Function": "Exploratory high-potential", "Survey_Taxon_Targets": "Burung, Reptil, Amfibi, Mamalia", "Occurrence_Status": "NO_HISTORICAL_RECORD_ALL_TARGET_TAXA", "Integrated_Stratum": "Moderate | Changed-Degraded | Built-up | NO_HISTORICAL_RECORD_ALL_TARGET_TAXA", "Function_Score": 0.85, "Change_Score": 1.0, "NDVI_Change_Score": 1.0, "LC_Rarity_Raw": 0.00025471217524197657, "LandCover_Representation_Score": 0.0, "Patch_Score": 0.17261509179313628, "Occurrence_Score": 0.27882370898141079, "Selection_Score": 0.65764388007745478, "SurveyPriority": "Priority 2", "Site_ID": "V3-019", "Longitude": 110.4032190351291, "Latitude": -7.8317130213009314, "Field_Burung": "Not surveyed", "Field_Reptil": "Not surveyed", "Field_Amfibi": "Not surveyed", "Field_Mamalia": "Not surveyed", "Field_Visit_Count": 0, "Field_Notes": "", "Dist_DriveRoad_m": 35.571554831699373, "Nearest_Road_Class": "living_street", "Road_Access_Tier": "Vehicle-access likely", "Dist_WalkNetwork_m": 20.914439377297843, "Access_Priority": "A", "Access_Class": "Easy", "Estimated_Access_Mode": "Vehicle-nearby", "Accessibility_Status": "PRELIMINARY OK", "Permission_Required": "Unknown", "Safety_Flag": "Check", "Reviewer_Decision": "Pending", "Reviewer_Notes": "", "Replacement_Site_ID": "", "Route_From_Base_m": null, "Preliminary_Access_Recommendation": "KEEP — access favorable", "Original_Model_Easting": 434207.3825099594, "Original_Model_Northing": 9134259.768681813, "Original_Model_Longitude": 110.4032190351291, "Original_Model_Latitude": -7.8317130213009314 }, "geometry": { "type": "Point", "coordinates": [ 110.403219035129098, -7.831713021300931 ] } },
{ "type": "Feature", "properties": { "Candidate_ID": "V3-01384", "row": 325, "col": 435, "HSI_Class": 2, "HabitatClass": "Moderate", "Patch_ID": 706, "Patch_Area_m2": 8400.0, "Patch_Area_Ha": 0.8399999737739563, "LULC_T1_Code": 4, "LULC_T1": "Built-up", "LULC_T2_Code": 2, "LULC_T2": "Grass/Shrub", "LULC_Transition": "Built-up → Grass/Shrub", "LULC_Change_Class": "Recovery", "NDVI_T1": 0.13181120157241821, "NDVI_T2": 0.61008048057556152, "Delta_NDVI": 0.47826927900314331, "NDVI_Change_Class": "Strong vegetation gain", "Integrated_Change_Class": "Recovery", "Integrated_Change_Severity": 0, "Count_Burung_500m": 0, "Record_Burung": "No", "Oldest_Burung_Date": null, "Latest_Burung_Date": null, "PreChange_Burung": "No", "Recent_Burung": "No", "Dist_Burung_m": 581.32089445294844, "Count_Reptil_500m": 1, "Record_Reptil": "Yes", "Oldest_Reptil_Date": null, "Latest_Reptil_Date": null, "PreChange_Reptil": "No", "Recent_Reptil": "No", "Dist_Reptil_m": 338.77386566605713, "Count_Amfibi_500m": 2, "Record_Amfibi": "Yes", "Oldest_Amfibi_Date": null, "Latest_Amfibi_Date": null, "PreChange_Amfibi": "No", "Recent_Amfibi": "No", "Dist_Amfibi_m": 338.77386566605713, "Count_Mamalia_500m": 0, "Record_Mamalia": "No", "Oldest_Mamalia_Date": null, "Latest_Mamalia_Date": null, "PreChange_Mamalia": "No", "Recent_Mamalia": "No", "Dist_Mamalia_m": 655.10335748509567, "Historical_Taxa": "Reptil, Amfibi", "NoRecord_Taxa": "Burung, Mamalia", "PreChange_Taxa": "", "Recent_Taxa": "", "Any_Historical_Record": "Yes", "Any_PreChange_Record": "No", "All_Taxa_NoRecord": "No", "Nearest_Record_Distance_m": 338.77386566605713, "Survey_Function": "Exploratory high-potential", "Survey_Taxon_Targets": "Burung, Mamalia", "Occurrence_Status": "HISTORICAL_PRESENCE_FOR_AT_LEAST_ONE_TAXON", "Integrated_Stratum": "Moderate | Recovery | Grass/Shrub | HISTORICAL_PRESENCE_FOR_AT_LEAST_ONE_TAXON", "Function_Score": 0.85, "Change_Score": 0.65, "NDVI_Change_Score": 0.7, "LC_Rarity_Raw": 0.33333333333333331, "LandCover_Representation_Score": 0.66649677200135915, "Patch_Score": 0.20698286971027369, "Occurrence_Score": 0.29066044722647422, "Selection_Score": 0.62973884749387865, "SurveyPriority": "Priority 2", "Site_ID": "V3-020", "Longitude": 110.38431448362273, "Latitude": -7.7959575834601402, "Field_Burung": "Not surveyed", "Field_Reptil": "Not surveyed", "Field_Amfibi": "Not surveyed", "Field_Mamalia": "Not surveyed", "Field_Visit_Count": 0, "Field_Notes": "", "Dist_DriveRoad_m": 49.841414870494567, "Nearest_Road_Class": "residential", "Road_Access_Tier": "Vehicle-access likely", "Dist_WalkNetwork_m": 28.5225022277933, "Access_Priority": "A", "Access_Class": "Easy", "Estimated_Access_Mode": "Vehicle-nearby", "Accessibility_Status": "PRELIMINARY OK", "Permission_Required": "Unknown", "Safety_Flag": "Check", "Reviewer_Decision": "Pending", "Reviewer_Notes": "", "Replacement_Site_ID": "", "Route_From_Base_m": null, "Preliminary_Access_Recommendation": "KEEP — access favorable", "Original_Model_Easting": 432117.3825099594, "Original_Model_Northing": 9138209.768681813, "Original_Model_Longitude": 110.38431448362273, "Original_Model_Latitude": -7.7959575834601402 }, "geometry": { "type": "Point", "coordinates": [ 110.384314483622731, -7.79595758346014 ] } },
{ "type": "Feature", "properties": { "Candidate_ID": "V3-03936", "row": 795, "col": 475, "HSI_Class": 1, "HabitatClass": "Low", "Patch_ID": 1, "Patch_Area_m2": 29112100.0, "Patch_Area_Ha": 2911.2099609375, "LULC_T1_Code": 4, "LULC_T1": "Built-up", "LULC_T2_Code": 4, "LULC_T2": "Built-up", "LULC_Transition": "Built-up → Built-up", "LULC_Change_Class": "Stable", "NDVI_T1": 0.41669636964797974, "NDVI_T2": 0.17939683794975281, "Delta_NDVI": -0.23729953169822693, "NDVI_Change_Class": "Strong vegetation loss", "Integrated_Change_Class": "Changed-Degraded", "Integrated_Change_Severity": 2, "Count_Burung_500m": 0, "Record_Burung": "No", "Oldest_Burung_Date": null, "Latest_Burung_Date": null, "PreChange_Burung": "No", "Recent_Burung": "No", "Dist_Burung_m": 1781.8910586391751, "Count_Reptil_500m": 0, "Record_Reptil": "No", "Oldest_Reptil_Date": null, "Latest_Reptil_Date": null, "PreChange_Reptil": "No", "Recent_Reptil": "No", "Dist_Reptil_m": 1709.5363139353074, "Count_Amfibi_500m": 0, "Record_Amfibi": "No", "Oldest_Amfibi_Date": null, "Latest_Amfibi_Date": null, "PreChange_Amfibi": "No", "Recent_Amfibi": "No", "Dist_Amfibi_m": 1762.4843122601978, "Count_Mamalia_500m": 0, "Record_Mamalia": "No", "Oldest_Mamalia_Date": null, "Latest_Mamalia_Date": null, "PreChange_Mamalia": "No", "Recent_Mamalia": "No", "Dist_Mamalia_m": 3448.4261287162108, "Historical_Taxa": "", "NoRecord_Taxa": "Burung, Reptil, Amfibi, Mamalia", "PreChange_Taxa": "", "Recent_Taxa": "", "Any_Historical_Record": "No", "Any_PreChange_Record": "No", "All_Taxa_NoRecord": "Yes", "Nearest_Record_Distance_m": 1709.5363139353074, "Survey_Function": "Candidate non-detection", "Survey_Taxon_Targets": "Burung, Reptil, Amfibi, Mamalia", "Occurrence_Status": "NO_HISTORICAL_RECORD_ALL_TARGET_TAXA", "Integrated_Stratum": "Low | Changed-Degraded | Built-up | NO_HISTORICAL_RECORD_ALL_TARGET_TAXA", "Function_Score": 0.95, "Change_Score": 1.0, "NDVI_Change_Score": 1.0, "LC_Rarity_Raw": 0.00025471217524197657, "LandCover_Representation_Score": 0.0, "Patch_Score": 1.0, "Occurrence_Score": 0.85476815696765374, "Selection_Score": 0.8229768156967654, "SurveyPriority": "Priority 3", "Site_ID": "V3-021", "Longitude": 110.38788034072296, "Latitude": -7.8384748755367299, "Field_Burung": "Not surveyed", "Field_Reptil": "Not surveyed", "Field_Amfibi": "Not surveyed", "Field_Mamalia": "Not surveyed", "Field_Visit_Count": 0, "Field_Notes": "", "Dist_DriveRoad_m": 53.670735767398995, "Nearest_Road_Class": "secondary", "Road_Access_Tier": "Vehicle-access likely", "Dist_WalkNetwork_m": 31.143364882328552, "Access_Priority": "A", "Access_Class": "Easy", "Estimated_Access_Mode": "Vehicle + short walk", "Accessibility_Status": "PRELIMINARY OK", "Permission_Required": "Unknown", "Safety_Flag": "Check", "Reviewer_Decision": "Pending", "Reviewer_Notes": "", "Replacement_Site_ID": "", "Route_From_Base_m": null, "Preliminary_Access_Recommendation": "KEEP — access favorable", "Original_Model_Easting": 432517.3825099594, "Original_Model_Northing": 9133509.768681813, "Original_Model_Longitude": 110.38788034072296, "Original_Model_Latitude": -7.8384748755367299 }, "geometry": { "type": "Point", "coordinates": [ 110.387880340722958, -7.83847487553673 ] } },
{ "type": "Feature", "properties": { "Candidate_ID": "V3-03903", "row": 755, "col": 435, "HSI_Class": 1, "HabitatClass": "Low", "Patch_ID": 1, "Patch_Area_m2": 29112100.0, "Patch_Area_Ha": 2911.2099609375, "LULC_T1_Code": 4, "LULC_T1": "Built-up", "LULC_T2_Code": 4, "LULC_T2": "Built-up", "LULC_Transition": "Built-up → Built-up", "LULC_Change_Class": "Stable", "NDVI_T1": 0.42496982216835022, "NDVI_T2": 0.19589821994304657, "Delta_NDVI": -0.22907160222530365, "NDVI_Change_Class": "Strong vegetation loss", "Integrated_Change_Class": "Changed-Degraded", "Integrated_Change_Severity": 2, "Count_Burung_500m": 0, "Record_Burung": "No", "Oldest_Burung_Date": null, "Latest_Burung_Date": null, "PreChange_Burung": "No", "Recent_Burung": "No", "Dist_Burung_m": 1339.0839659772014, "Count_Reptil_500m": 0, "Record_Reptil": "No", "Oldest_Reptil_Date": null, "Latest_Reptil_Date": null, "PreChange_Reptil": "No", "Recent_Reptil": "No", "Dist_Reptil_m": 1387.8677926425166, "Count_Amfibi_500m": 0, "Record_Amfibi": "No", "Oldest_Amfibi_Date": null, "Latest_Amfibi_Date": null, "PreChange_Amfibi": "No", "Recent_Amfibi": "No", "Dist_Amfibi_m": 1288.5356225483717, "Count_Mamalia_500m": 0, "Record_Mamalia": "No", "Oldest_Mamalia_Date": null, "Latest_Mamalia_Date": null, "PreChange_Mamalia": "No", "Recent_Mamalia": "No", "Dist_Mamalia_m": 3177.1872626758945, "Historical_Taxa": "", "NoRecord_Taxa": "Burung, Reptil, Amfibi, Mamalia", "PreChange_Taxa": "", "Recent_Taxa": "", "Any_Historical_Record": "No", "Any_PreChange_Record": "No", "All_Taxa_NoRecord": "Yes", "Nearest_Record_Distance_m": 1288.5356225483717, "Survey_Function": "Candidate non-detection", "Survey_Taxon_Targets": "Burung, Reptil, Amfibi, Mamalia", "Occurrence_Status": "NO_HISTORICAL_RECORD_ALL_TARGET_TAXA", "Integrated_Stratum": "Low | Changed-Degraded | Built-up | NO_HISTORICAL_RECORD_ALL_TARGET_TAXA", "Function_Score": 0.95, "Change_Score": 1.0, "NDVI_Change_Score": 1.0, "LC_Rarity_Raw": 0.00025471217524197657, "LandCover_Representation_Score": 0.0, "Patch_Score": 1.0, "Occurrence_Score": 0.64426781127418586, "Selection_Score": 0.80192678112741866, "SurveyPriority": "Priority 3", "Site_ID": "V3-022", "Longitude": 110.38425748997501, "Latitude": -7.8348515485274914, "Field_Burung": "Not surveyed", "Field_Reptil": "Not surveyed", "Field_Amfibi": "Not surveyed", "Field_Mamalia": "Not surveyed", "Field_Visit_Count": 0, "Field_Notes": "", "Dist_DriveRoad_m": 57.747729481901175, "Nearest_Road_Class": "residential", "Road_Access_Tier": "Vehicle-access likely", "Dist_WalkNetwork_m": 38.896214977460239, "Access_Priority": "A", "Access_Class": "Easy", "Estimated_Access_Mode": "Vehicle + short walk", "Accessibility_Status": "PRELIMINARY OK", "Permission_Required": "Unknown", "Safety_Flag": "Check", "Reviewer_Decision": "Pending", "Reviewer_Notes": "", "Replacement_Site_ID": "", "Route_From_Base_m": null, "Preliminary_Access_Recommendation": "KEEP — access favorable", "Original_Model_Easting": 432117.3825099594, "Original_Model_Northing": 9133909.768681813, "Original_Model_Longitude": 110.38425748997501, "Original_Model_Latitude": -7.8348515485274914 }, "geometry": { "type": "Point", "coordinates": [ 110.384257489975013, -7.834851548527491 ] } },
{ "type": "Feature", "properties": { "Candidate_ID": "V3-03927", "row": 775, "col": 525, "HSI_Class": 1, "HabitatClass": "Low", "Patch_ID": 1, "Patch_Area_m2": 29112100.0, "Patch_Area_Ha": 2911.2099609375, "LULC_T1_Code": 4, "LULC_T1": "Built-up", "LULC_T2_Code": 4, "LULC_T2": "Built-up", "LULC_Transition": "Built-up → Built-up", "LULC_Change_Class": "Stable", "NDVI_T1": 0.24686005711555481, "NDVI_T2": 0.06347375363111496, "Delta_NDVI": -0.18338629603385925, "NDVI_Change_Class": "Moderate vegetation loss", "Integrated_Change_Class": "Changed-Degraded", "Integrated_Change_Severity": 1, "Count_Burung_500m": 0, "Record_Burung": "No", "Oldest_Burung_Date": null, "Latest_Burung_Date": null, "PreChange_Burung": "No", "Recent_Burung": "No", "Dist_Burung_m": 1722.8780451431714, "Count_Reptil_500m": 0, "Record_Reptil": "No", "Oldest_Reptil_Date": null, "Latest_Reptil_Date": null, "PreChange_Reptil": "No", "Recent_Reptil": "No", "Dist_Reptil_m": 1381.5422841866375, "Count_Amfibi_500m": 0, "Record_Amfibi": "No", "Oldest_Amfibi_Date": null, "Latest_Amfibi_Date": null, "PreChange_Amfibi": "No", "Recent_Amfibi": "No", "Dist_Amfibi_m": 1450.5022755766029, "Count_Mamalia_500m": 0, "Record_Mamalia": "No", "Oldest_Mamalia_Date": null, "Latest_Mamalia_Date": null, "PreChange_Mamalia": "No", "Recent_Mamalia": "No", "Dist_Mamalia_m": 3137.8825996986175, "Historical_Taxa": "", "NoRecord_Taxa": "Burung, Reptil, Amfibi, Mamalia", "PreChange_Taxa": "", "Recent_Taxa": "", "Any_Historical_Record": "No", "Any_PreChange_Record": "No", "All_Taxa_NoRecord": "Yes", "Nearest_Record_Distance_m": 1381.5422841866375, "Survey_Function": "Candidate non-detection", "Survey_Taxon_Targets": "Burung, Reptil, Amfibi, Mamalia", "Occurrence_Status": "NO_HISTORICAL_RECORD_ALL_TARGET_TAXA", "Integrated_Stratum": "Low | Changed-Degraded | Built-up | NO_HISTORICAL_RECORD_ALL_TARGET_TAXA", "Function_Score": 0.95, "Change_Score": 1.0, "NDVI_Change_Score": 0.85, "LC_Rarity_Raw": 0.00025471217524197657, "LandCover_Representation_Score": 0.0, "Patch_Score": 1.0, "Occurrence_Score": 0.6907711420933188, "Selection_Score": 0.7840771142093319, "SurveyPriority": "Priority 3", "Site_ID": "V3-023", "Longitude": 110.39241817682316, "Latitude": -7.8366724183633876, "Field_Burung": "Not surveyed", "Field_Reptil": "Not surveyed", "Field_Amfibi": "Not surveyed", "Field_Mamalia": "Not surveyed", "Field_Visit_Count": 0, "Field_Notes": "", "Dist_DriveRoad_m": 60.823728153882016, "Nearest_Road_Class": "living_street", "Road_Access_Tier": "Vehicle-access likely", "Dist_WalkNetwork_m": 48.922052320414885, "Access_Priority": "A", "Access_Class": "Easy", "Estimated_Access_Mode": "Vehicle + short walk", "Accessibility_Status": "PRELIMINARY OK", "Permission_Required": "Unknown", "Safety_Flag": "Check", "Reviewer_Decision": "Pending", "Reviewer_Notes": "", "Replacement_Site_ID": "", "Route_From_Base_m": null, "Preliminary_Access_Recommendation": "KEEP — access favorable", "Original_Model_Easting": 433017.3825099594, "Original_Model_Northing": 9133709.768681813, "Original_Model_Longitude": 110.39241817682316, "Original_Model_Latitude": -7.8366724183633876 }, "geometry": { "type": "Point", "coordinates": [ 110.392418176823156, -7.836672418363388 ] } },
{ "type": "Feature", "properties": { "Candidate_ID": "V3-03855", "row": 725, "col": 535, "HSI_Class": 1, "HabitatClass": "Low", "Patch_ID": 1, "Patch_Area_m2": 29112100.0, "Patch_Area_Ha": 2911.2099609375, "LULC_T1_Code": 4, "LULC_T1": "Built-up", "LULC_T2_Code": 4, "LULC_T2": "Built-up", "LULC_Transition": "Built-up → Built-up", "LULC_Change_Class": "Stable", "NDVI_T1": 0.51672512292861938, "NDVI_T2": 0.013928655534982681, "Delta_NDVI": -0.502796471118927, "NDVI_Change_Class": "Strong vegetation loss", "Integrated_Change_Class": "Changed-Degraded", "Integrated_Change_Severity": 2, "Count_Burung_500m": 0, "Record_Burung": "No", "Oldest_Burung_Date": null, "Latest_Burung_Date": null, "PreChange_Burung": "No", "Recent_Burung": "No", "Dist_Burung_m": 1283.5123535154546, "Count_Reptil_500m": 0, "Record_Reptil": "No", "Oldest_Reptil_Date": null, "Latest_Reptil_Date": null, "PreChange_Reptil": "No", "Recent_Reptil": "No", "Dist_Reptil_m": 873.60911120840251, "Count_Amfibi_500m": 0, "Record_Amfibi": "No", "Oldest_Amfibi_Date": null, "Latest_Amfibi_Date": null, "PreChange_Amfibi": "No", "Recent_Amfibi": "No", "Dist_Amfibi_m": 1048.8531531650031, "Count_Mamalia_500m": 0, "Record_Mamalia": "No", "Oldest_Mamalia_Date": null, "Latest_Mamalia_Date": null, "PreChange_Mamalia": "No", "Recent_Mamalia": "No", "Dist_Mamalia_m": 2627.9963286177463, "Historical_Taxa": "", "NoRecord_Taxa": "Burung, Reptil, Amfibi, Mamalia", "PreChange_Taxa": "", "Recent_Taxa": "", "Any_Historical_Record": "No", "Any_PreChange_Record": "No", "All_Taxa_NoRecord": "Yes", "Nearest_Record_Distance_m": 873.60911120840251, "Survey_Function": "Candidate non-detection", "Survey_Taxon_Targets": "Burung, Reptil, Amfibi, Mamalia", "Occurrence_Status": "NO_HISTORICAL_RECORD_ALL_TARGET_TAXA", "Integrated_Stratum": "Low | Changed-Degraded | Built-up | NO_HISTORICAL_RECORD_ALL_TARGET_TAXA", "Function_Score": 0.95, "Change_Score": 1.0, "NDVI_Change_Score": 1.0, "LC_Rarity_Raw": 0.00025471217524197657, "LandCover_Representation_Score": 0.0, "Patch_Score": 1.0, "Occurrence_Score": 0.43680455560420123, "Selection_Score": 0.78118045556042015, "SurveyPriority": "Priority 3", "Site_ID": "V3-024", "Longitude": 110.39333176184398, "Latitude": -7.8321511675856224, "Field_Burung": "Not surveyed", "Field_Reptil": "Not surveyed", "Field_Amfibi": "Not surveyed", "Field_Mamalia": "Not surveyed", "Field_Visit_Count": 0, "Field_Notes": "", "Dist_DriveRoad_m": 60.823728153882016, "Nearest_Road_Class": "living_street", "Road_Access_Tier": "Vehicle-access likely", "Dist_WalkNetwork_m": 49.841414870494567, "Access_Priority": "A", "Access_Class": "Easy", "Estimated_Access_Mode": "Vehicle + short walk", "Accessibility_Status": "PRELIMINARY OK", "Permission_Required": "Unknown", "Safety_Flag": "Check", "Reviewer_Decision": "Pending", "Reviewer_Notes": "", "Replacement_Site_ID": "", "Route_From_Base_m": null, "Preliminary_Access_Recommendation": "KEEP — access favorable", "Original_Model_Easting": 433117.3825099594, "Original_Model_Northing": 9134209.768681813, "Original_Model_Longitude": 110.39333176184398, "Original_Model_Latitude": -7.8321511675856224 }, "geometry": { "type": "Point", "coordinates": [ 110.393331761843982, -7.832151167585622 ] } },
{ "type": "Feature", "properties": { "Candidate_ID": "V3-03743", "row": 685, "col": 485, "HSI_Class": 1, "HabitatClass": "Low", "Patch_ID": 1, "Patch_Area_m2": 29112100.0, "Patch_Area_Ha": 2911.2099609375, "LULC_T1_Code": 4, "LULC_T1": "Built-up", "LULC_T2_Code": 4, "LULC_T2": "Built-up", "LULC_Transition": "Built-up → Built-up", "LULC_Change_Class": "Stable", "NDVI_T1": 0.56692427396774292, "NDVI_T2": 0.2838243842124939, "Delta_NDVI": -0.28309988975524902, "NDVI_Change_Class": "Strong vegetation loss", "Integrated_Change_Class": "Changed-Degraded", "Integrated_Change_Severity": 2, "Count_Burung_500m": 0, "Record_Burung": "No", "Oldest_Burung_Date": null, "Latest_Burung_Date": null, "PreChange_Burung": "No", "Recent_Burung": "No", "Dist_Burung_m": 804.33275396800252, "Count_Reptil_500m": 0, "Record_Reptil": "No", "Oldest_Reptil_Date": null, "Latest_Reptil_Date": null, "PreChange_Reptil": "No", "Recent_Reptil": "No", "Dist_Reptil_m": 715.98795512925028, "Count_Amfibi_500m": 0, "Record_Amfibi": "No", "Oldest_Amfibi_Date": null, "Latest_Amfibi_Date": null, "PreChange_Amfibi": "No", "Recent_Amfibi": "No", "Dist_Amfibi_m": 854.38722859477014, "Count_Mamalia_500m": 0, "Record_Mamalia": "No", "Oldest_Mamalia_Date": null, "Latest_Mamalia_Date": null, "PreChange_Mamalia": "No", "Recent_Mamalia": "No", "Dist_Mamalia_m": 2355.7706761771851, "Historical_Taxa": "", "NoRecord_Taxa": "Burung, Reptil, Amfibi, Mamalia", "PreChange_Taxa": "", "Recent_Taxa": "", "Any_Historical_Record": "No", "Any_PreChange_Record": "No", "All_Taxa_NoRecord": "Yes", "Nearest_Record_Distance_m": 715.98795512925028, "Survey_Function": "Candidate non-detection", "Survey_Taxon_Targets": "Burung, Reptil, Amfibi, Mamalia", "Occurrence_Status": "NO_HISTORICAL_RECORD_ALL_TARGET_TAXA", "Integrated_Stratum": "Low | Changed-Degraded | Built-up | NO_HISTORICAL_RECORD_ALL_TARGET_TAXA", "Function_Score": 0.95, "Change_Score": 1.0, "NDVI_Change_Score": 1.0, "LC_Rarity_Raw": 0.00025471217524197657, "LandCover_Representation_Score": 0.0, "Patch_Score": 1.0, "Occurrence_Score": 0.35799397756462514, "Selection_Score": 0.7732993977564625, "SurveyPriority": "Priority 3", "Site_ID": "V3-025", "Longitude": 110.38880188989509, "Latitude": -7.8285265736067648, "Field_Burung": "Not surveyed", "Field_Reptil": "Not surveyed", "Field_Amfibi": "Not surveyed", "Field_Mamalia": "Not surveyed", "Field_Visit_Count": 0, "Field_Notes": "", "Dist_DriveRoad_m": 72.769690521250155, "Nearest_Road_Class": "living_street", "Road_Access_Tier": "Vehicle-access likely", "Dist_WalkNetwork_m": 49.841414870494567, "Access_Priority": "A", "Access_Class": "Easy", "Estimated_Access_Mode": "Vehicle + short walk", "Accessibility_Status": "PRELIMINARY OK", "Permission_Required": "Unknown", "Safety_Flag": "Check", "Reviewer_Decision": "Pending", "Reviewer_Notes": "", "Replacement_Site_ID": "", "Route_From_Base_m": null, "Preliminary_Access_Recommendation": "KEEP — access favorable", "Original_Model_Easting": 432617.3825099594, "Original_Model_Northing": 9134609.768681813, "Original_Model_Longitude": 110.38880188989509, "Original_Model_Latitude": -7.8285265736067648 }, "geometry": { "type": "Point", "coordinates": [ 110.388801889895092, -7.828526573606765 ] } },
{ "type": "Feature", "properties": { "Candidate_ID": "V3-03880", "row": 735, "col": 605, "HSI_Class": 1, "HabitatClass": "Low", "Patch_ID": 1, "Patch_Area_m2": 29112100.0, "Patch_Area_Ha": 2911.2099609375, "LULC_T1_Code": 4, "LULC_T1": "Built-up", "LULC_T2_Code": 4, "LULC_T2": "Built-up", "LULC_Transition": "Built-up → Built-up", "LULC_Change_Class": "Stable", "NDVI_T1": 0.58147764205932617, "NDVI_T2": 0.30187207460403442, "Delta_NDVI": -0.27960556745529175, "NDVI_Change_Class": "Strong vegetation loss", "Integrated_Change_Class": "Changed-Degraded", "Integrated_Change_Severity": 2, "Count_Burung_500m": 0, "Record_Burung": "No", "Oldest_Burung_Date": null, "Latest_Burung_Date": null, "PreChange_Burung": "No", "Recent_Burung": "No", "Dist_Burung_m": 1002.1249471618902, "Count_Reptil_500m": 0, "Record_Reptil": "No", "Oldest_Reptil_Date": null, "Latest_Reptil_Date": null, "PreChange_Reptil": "No", "Recent_Reptil": "No", "Dist_Reptil_m": 1153.7934102176487, "Count_Amfibi_500m": 0, "Record_Amfibi": "No", "Oldest_Amfibi_Date": null, "Latest_Amfibi_Date": null, "PreChange_Amfibi": "No", "Recent_Amfibi": "No", "Dist_Amfibi_m": 691.83942117237007, "Count_Mamalia_500m": 0, "Record_Mamalia": "No", "Oldest_Mamalia_Date": null, "Latest_Mamalia_Date": null, "PreChange_Mamalia": "No", "Recent_Mamalia": "No", "Dist_Mamalia_m": 2677.3897139661221, "Historical_Taxa": "", "NoRecord_Taxa": "Burung, Reptil, Amfibi, Mamalia", "PreChange_Taxa": "", "Recent_Taxa": "", "Any_Historical_Record": "No", "Any_PreChange_Record": "No", "All_Taxa_NoRecord": "Yes", "Nearest_Record_Distance_m": 691.83942117237007, "Survey_Function": "Candidate non-detection", "Survey_Taxon_Targets": "Burung, Reptil, Amfibi, Mamalia", "Occurrence_Status": "NO_HISTORICAL_RECORD_ALL_TARGET_TAXA", "Integrated_Stratum": "Low | Changed-Degraded | Built-up | NO_HISTORICAL_RECORD_ALL_TARGET_TAXA", "Function_Score": 0.95, "Change_Score": 1.0, "NDVI_Change_Score": 1.0, "LC_Rarity_Raw": 0.00025471217524197657, "LandCover_Representation_Score": 0.0, "Patch_Score": 1.0, "Occurrence_Score": 0.34591971058618504, "Selection_Score": 0.7720919710586186, "SurveyPriority": "Priority 3", "Site_ID": "V3-026", "Longitude": 110.39967967620933, "Latitude": -7.8330647685934887, "Field_Burung": "Not surveyed", "Field_Reptil": "Not surveyed", "Field_Amfibi": "Not surveyed", "Field_Mamalia": "Not surveyed", "Field_Visit_Count": 0, "Field_Notes": "", "Dist_DriveRoad_m": 75.285336280461806, "Nearest_Road_Class": "secondary", "Road_Access_Tier": "Vehicle-access likely", "Dist_WalkNetwork_m": 60.750863120115952, "Access_Priority": "A", "Access_Class": "Easy", "Estimated_Access_Mode": "Vehicle + short walk", "Accessibility_Status": "PRELIMINARY OK", "Permission_Required": "Unknown", "Safety_Flag": "Check", "Reviewer_Decision": "Pending", "Reviewer_Notes": "", "Replacement_Site_ID": "", "Route_From_Base_m": null, "Preliminary_Access_Recommendation": "KEEP — access favorable", "Original_Model_Easting": 433817.3825099594, "Original_Model_Northing": 9134109.768681813, "Original_Model_Longitude": 110.39967967620933, "Original_Model_Latitude": -7.8330647685934887 }, "geometry": { "type": "Point", "coordinates": [ 110.399679676209331, -7.833064768593489 ] } },
{ "type": "Feature", "properties": { "Candidate_ID": "V3-03740", "row": 685, "col": 455, "HSI_Class": 1, "HabitatClass": "Low", "Patch_ID": 1, "Patch_Area_m2": 29112100.0, "Patch_Area_Ha": 2911.2099609375, "LULC_T1_Code": 4, "LULC_T1": "Built-up", "LULC_T2_Code": 4, "LULC_T2": "Built-up", "LULC_Transition": "Built-up → Built-up", "LULC_Change_Class": "Stable", "NDVI_T1": 0.66518884897232056, "NDVI_T2": 0.27167603373527527, "Delta_NDVI": -0.39351281523704529, "NDVI_Change_Class": "Strong vegetation loss", "Integrated_Change_Class": "Changed-Degraded", "Integrated_Change_Severity": 2, "Count_Burung_500m": 0, "Record_Burung": "No", "Oldest_Burung_Date": null, "Latest_Burung_Date": null, "PreChange_Burung": "No", "Recent_Burung": "No", "Dist_Burung_m": 666.24265861672313, "Count_Reptil_500m": 0, "Record_Reptil": "No", "Oldest_Reptil_Date": null, "Latest_Reptil_Date": null, "PreChange_Reptil": "No", "Recent_Reptil": "No", "Dist_Reptil_m": 668.18872902088265, "Count_Amfibi_500m": 0, "Record_Amfibi": "No", "Oldest_Amfibi_Date": null, "Latest_Amfibi_Date": null, "PreChange_Amfibi": "No", "Recent_Amfibi": "No", "Dist_Amfibi_m": 667.02878199821805, "Count_Mamalia_500m": 0, "Record_Mamalia": "No", "Oldest_Mamalia_Date": null, "Latest_Mamalia_Date": null, "PreChange_Mamalia": "No", "Recent_Mamalia": "No", "Dist_Mamalia_m": 2452.47418833966, "Historical_Taxa": "", "NoRecord_Taxa": "Burung, Reptil, Amfibi, Mamalia", "PreChange_Taxa": "", "Recent_Taxa": "", "Any_Historical_Record": "No", "Any_PreChange_Record": "No", "All_Taxa_NoRecord": "Yes", "Nearest_Record_Distance_m": 666.24265861672313, "Survey_Function": "Candidate non-detection", "Survey_Taxon_Targets": "Burung, Reptil, Amfibi, Mamalia", "Occurrence_Status": "NO_HISTORICAL_RECORD_ALL_TARGET_TAXA", "Integrated_Stratum": "Low | Changed-Degraded | Built-up | NO_HISTORICAL_RECORD_ALL_TARGET_TAXA", "Function_Score": 0.95, "Change_Score": 1.0, "NDVI_Change_Score": 1.0, "LC_Rarity_Raw": 0.00025471217524197657, "LandCover_Representation_Score": 0.0, "Patch_Score": 1.0, "Occurrence_Score": 0.33312132930836158, "Selection_Score": 0.77081213293083617, "SurveyPriority": "Priority 3", "Site_ID": "V3-027", "Longitude": 110.38608082824845, "Latitude": -7.8285226219239714, "Field_Burung": "Not surveyed", "Field_Reptil": "Not surveyed", "Field_Amfibi": "Not surveyed", "Field_Mamalia": "Not surveyed", "Field_Visit_Count": 0, "Field_Notes": "", "Dist_DriveRoad_m": 76.430224653720401, "Nearest_Road_Class": "residential", "Road_Access_Tier": "Vehicle-access likely", "Dist_WalkNetwork_m": 60.750863120115952, "Access_Priority": "A", "Access_Class": "Easy", "Estimated_Access_Mode": "Vehicle + short walk", "Accessibility_Status": "PRELIMINARY OK", "Permission_Required": "Unknown", "Safety_Flag": "Check", "Reviewer_Decision": "Pending", "Reviewer_Notes": "", "Replacement_Site_ID": "", "Route_From_Base_m": null, "Preliminary_Access_Recommendation": "KEEP — access favorable", "Original_Model_Easting": 432317.3825099594, "Original_Model_Northing": 9134609.768681813, "Original_Model_Longitude": 110.38608082824845, "Original_Model_Latitude": -7.8285226219239714 }, "geometry": { "type": "Point", "coordinates": [ 110.386080828248453, -7.828522621923971 ] } },
{ "type": "Feature", "properties": { "Candidate_ID": "V3-01924", "row": 415, "col": 35, "HSI_Class": 1, "HabitatClass": "Low", "Patch_ID": 1, "Patch_Area_m2": 29112100.0, "Patch_Area_Ha": 2911.2099609375, "LULC_T1_Code": 4, "LULC_T1": "Built-up", "LULC_T2_Code": 4, "LULC_T2": "Built-up", "LULC_Transition": "Built-up → Built-up", "LULC_Change_Class": "Stable", "NDVI_T1": 0.40187668800354004, "NDVI_T2": 0.19096603989601135, "Delta_NDVI": -0.21091064810752869, "NDVI_Change_Class": "Strong vegetation loss", "Integrated_Change_Class": "Changed-Degraded", "Integrated_Change_Severity": 2, "Count_Burung_500m": 0, "Record_Burung": "No", "Oldest_Burung_Date": null, "Latest_Burung_Date": null, "PreChange_Burung": "No", "Recent_Burung": "No", "Dist_Burung_m": 643.29521912525547, "Count_Reptil_500m": 0, "Record_Reptil": "No", "Oldest_Reptil_Date": null, "Latest_Reptil_Date": null, "PreChange_Reptil": "No", "Recent_Reptil": "No", "Dist_Reptil_m": 662.94952153476277, "Count_Amfibi_500m": 0, "Record_Amfibi": "No", "Oldest_Amfibi_Date": null, "Latest_Amfibi_Date": null, "PreChange_Amfibi": "No", "Recent_Amfibi": "No", "Dist_Amfibi_m": 1867.897642958661, "Count_Mamalia_500m": 0, "Record_Mamalia": "No", "Oldest_Mamalia_Date": null, "Latest_Mamalia_Date": null, "PreChange_Mamalia": "No", "Recent_Mamalia": "No", "Dist_Mamalia_m": 1867.897642958661, "Historical_Taxa": "", "NoRecord_Taxa": "Burung, Reptil, Amfibi, Mamalia", "PreChange_Taxa": "", "Recent_Taxa": "", "Any_Historical_Record": "No", "Any_PreChange_Record": "No", "All_Taxa_NoRecord": "Yes", "Nearest_Record_Distance_m": 643.29521912525547, "Survey_Function": "Candidate non-detection", "Survey_Taxon_Targets": "Burung, Reptil, Amfibi, Mamalia", "Occurrence_Status": "NO_HISTORICAL_RECORD_ALL_TARGET_TAXA", "Integrated_Stratum": "Low | Changed-Degraded | Built-up | NO_HISTORICAL_RECORD_ALL_TARGET_TAXA", "Function_Score": 0.95, "Change_Score": 1.0, "NDVI_Change_Score": 1.0, "LC_Rarity_Raw": 0.00025471217524197657, "LandCover_Representation_Score": 0.0, "Patch_Score": 1.0, "Occurrence_Score": 0.32164760956262772, "Selection_Score": 0.76966476095626279, "SurveyPriority": "Priority 3", "Site_ID": "V3-028", "Longitude": 110.34802401661807, "Latitude": -7.8040438366622373, "Field_Burung": "Not surveyed", "Field_Reptil": "Not surveyed", "Field_Amfibi": "Not surveyed", "Field_Mamalia": "Not surveyed", "Field_Visit_Count": 0, "Field_Notes": "", "Dist_DriveRoad_m": 76.430224653720401, "Nearest_Road_Class": "residential", "Road_Access_Tier": "Vehicle-access likely", "Dist_WalkNetwork_m": 76.430224653720401, "Access_Priority": "A", "Access_Class": "Easy", "Estimated_Access_Mode": "Vehicle + short walk", "Accessibility_Status": "PRELIMINARY OK", "Permission_Required": "Unknown", "Safety_Flag": "Check", "Reviewer_Decision": "Pending", "Reviewer_Notes": "", "Replacement_Site_ID": "", "Route_From_Base_m": null, "Preliminary_Access_Recommendation": "KEEP — access favorable", "Original_Model_Easting": 428117.3825099594, "Original_Model_Northing": 9137309.768681813, "Original_Model_Longitude": 110.34802401661807, "Original_Model_Latitude": -7.8040438366622373 }, "geometry": { "type": "Point", "coordinates": [ 110.348024016618069, -7.804043836662237 ] } },
{ "type": "Feature", "properties": { "Candidate_ID": "V3-01739", "row": 385, "col": 215, "HSI_Class": 1, "HabitatClass": "Low", "Patch_ID": 1, "Patch_Area_m2": 29112100.0, "Patch_Area_Ha": 2911.2099609375, "LULC_T1_Code": 4, "LULC_T1": "Built-up", "LULC_T2_Code": 4, "LULC_T2": "Built-up", "LULC_Transition": "Built-up → Built-up", "LULC_Change_Class": "Stable", "NDVI_T1": 0.37053140997886658, "NDVI_T2": 0.10515300929546356, "Delta_NDVI": -0.26537841558456421, "NDVI_Change_Class": "Strong vegetation loss", "Integrated_Change_Class": "Changed-Degraded", "Integrated_Change_Severity": 2, "Count_Burung_500m": 39, "Record_Burung": "Yes", "Oldest_Burung_Date": null, "Latest_Burung_Date": null, "PreChange_Burung": "No", "Recent_Burung": "No", "Dist_Burung_m": 11.075212384162983, "Count_Reptil_500m": 7, "Record_Reptil": "Yes", "Oldest_Reptil_Date": null, "Latest_Reptil_Date": null, "PreChange_Reptil": "No", "Recent_Reptil": "No", "Dist_Reptil_m": 43.727896307055993, "Count_Amfibi_500m": 5, "Record_Amfibi": "Yes", "Oldest_Amfibi_Date": null, "Latest_Amfibi_Date": null, "PreChange_Amfibi": "No", "Recent_Amfibi": "No", "Dist_Amfibi_m": 43.727896307055993, "Count_Mamalia_500m": 1, "Record_Mamalia": "Yes", "Oldest_Mamalia_Date": null, "Latest_Mamalia_Date": null, "PreChange_Mamalia": "No", "Recent_Mamalia": "No", "Dist_Mamalia_m": 43.727896307055993, "Historical_Taxa": "Burung, Reptil, Amfibi, Mamalia", "NoRecord_Taxa": "", "PreChange_Taxa": "", "Recent_Taxa": "", "Any_Historical_Record": "Yes", "Any_PreChange_Record": "No", "All_Taxa_NoRecord": "No", "Nearest_Record_Distance_m": 11.075212384162983, "Survey_Function": "Change verification", "Survey_Taxon_Targets": "Burung, Reptil, Amfibi, Mamalia", "Occurrence_Status": "HISTORICAL_PRESENCE_FOR_AT_LEAST_ONE_TAXON", "Integrated_Stratum": "Low | Changed-Degraded | Built-up | HISTORICAL_PRESENCE_FOR_AT_LEAST_ONE_TAXON", "Function_Score": 1.0, "Change_Score": 1.0, "NDVI_Change_Score": 1.0, "LC_Rarity_Raw": 0.00025471217524197657, "LandCover_Representation_Score": 0.0, "Patch_Score": 1.0, "Occurrence_Score": 0.97784957523167404, "Selection_Score": 0.8477849575231674, "SurveyPriority": "Priority 3", "Site_ID": "V3-029", "Longitude": 110.36435343567398, "Latitude": -7.8013551554029954, "Field_Burung": "Not surveyed", "Field_Reptil": "Not surveyed", "Field_Amfibi": "Not surveyed", "Field_Mamalia": "Not surveyed", "Field_Visit_Count": 0, "Field_Notes": "", "Dist_DriveRoad_m": 107.61144995439706, "Nearest_Road_Class": "secondary", "Road_Access_Tier": "Vehicle-access likely", "Dist_WalkNetwork_m": 96.557985655468315, "Access_Priority": "B", "Access_Class": "Moderate", "Estimated_Access_Mode": "Vehicle + short walk", "Accessibility_Status": "PRELIMINARY OK", "Permission_Required": "Unknown", "Safety_Flag": "Check", "Reviewer_Decision": "Pending", "Reviewer_Notes": "", "Replacement_Site_ID": "", "Route_From_Base_m": null, "Preliminary_Access_Recommendation": "KEEP / FIELD CHECK", "Original_Model_Easting": 429917.3825099594, "Original_Model_Northing": 9137609.768681813, "Original_Model_Longitude": 110.36435343567398, "Original_Model_Latitude": -7.8013551554029954 }, "geometry": { "type": "Point", "coordinates": [ 110.364353435673976, -7.801355155402995 ] } },
{ "type": "Feature", "properties": { "Candidate_ID": "V3-01707", "row": 375, "col": 575, "HSI_Class": 1, "HabitatClass": "Low", "Patch_ID": 1, "Patch_Area_m2": 29112100.0, "Patch_Area_Ha": 2911.2099609375, "LULC_T1_Code": 4, "LULC_T1": "Built-up", "LULC_T2_Code": 4, "LULC_T2": "Built-up", "LULC_Transition": "Built-up → Built-up", "LULC_Change_Class": "Stable", "NDVI_T1": 0.38500803709030151, "NDVI_T2": 0.1139543354511261, "Delta_NDVI": -0.27105370163917542, "NDVI_Change_Class": "Strong vegetation loss", "Integrated_Change_Class": "Changed-Degraded", "Integrated_Change_Severity": 2, "Count_Burung_500m": 6, "Record_Burung": "Yes", "Oldest_Burung_Date": null, "Latest_Burung_Date": null, "PreChange_Burung": "No", "Recent_Burung": "No", "Dist_Burung_m": 69.533989281105022, "Count_Reptil_500m": 16, "Record_Reptil": "Yes", "Oldest_Reptil_Date": null, "Latest_Reptil_Date": null, "PreChange_Reptil": "No", "Recent_Reptil": "No", "Dist_Reptil_m": 13.338818842385871, "Count_Amfibi_500m": 1, "Record_Amfibi": "Yes", "Oldest_Amfibi_Date": null, "Latest_Amfibi_Date": null, "PreChange_Amfibi": "No", "Recent_Amfibi": "No", "Dist_Amfibi_m": 400.56164856134922, "Count_Mamalia_500m": 0, "Record_Mamalia": "No", "Oldest_Mamalia_Date": null, "Latest_Mamalia_Date": null, "PreChange_Mamalia": "No", "Recent_Mamalia": "No", "Dist_Mamalia_m": 590.47354014604116, "Historical_Taxa": "Burung, Reptil, Amfibi", "NoRecord_Taxa": "Mamalia", "PreChange_Taxa": "", "Recent_Taxa": "", "Any_Historical_Record": "Yes", "Any_PreChange_Record": "No", "All_Taxa_NoRecord": "No", "Nearest_Record_Distance_m": 13.338818842385871, "Survey_Function": "Change verification", "Survey_Taxon_Targets": "Burung, Reptil, Amfibi", "Occurrence_Status": "HISTORICAL_PRESENCE_FOR_AT_LEAST_ONE_TAXON", "Integrated_Stratum": "Low | Changed-Degraded | Built-up | HISTORICAL_PRESENCE_FOR_AT_LEAST_ONE_TAXON", "Function_Score": 1.0, "Change_Score": 1.0, "NDVI_Change_Score": 1.0, "LC_Rarity_Raw": 0.00025471217524197657, "LandCover_Representation_Score": 0.0, "Patch_Score": 1.0, "Occurrence_Score": 0.97332236231522828, "Selection_Score": 0.84733223623152287, "SurveyPriority": "Priority 3", "Site_ID": "V3-030", "Longitude": 110.39700531968622, "Latitude": -7.800498420358883, "Field_Burung": "Not surveyed", "Field_Reptil": "Not surveyed", "Field_Amfibi": "Not surveyed", "Field_Mamalia": "Not surveyed", "Field_Visit_Count": 0, "Field_Notes": "", "Dist_DriveRoad_m": 145.36047930826618, "Nearest_Road_Class": "tertiary", "Road_Access_Tier": "Vehicle-access likely", "Dist_WalkNetwork_m": 100.41980831819768, "Access_Priority": "B", "Access_Class": "Moderate", "Estimated_Access_Mode": "Vehicle + short walk", "Accessibility_Status": "PRELIMINARY OK", "Permission_Required": "Unknown", "Safety_Flag": "Check", "Reviewer_Decision": "Pending", "Reviewer_Notes": "", "Replacement_Site_ID": "", "Route_From_Base_m": null, "Preliminary_Access_Recommendation": "KEEP / FIELD CHECK", "Original_Model_Easting": 433517.3825099594, "Original_Model_Northing": 9137709.768681813, "Original_Model_Longitude": 110.39700531968622, "Original_Model_Latitude": -7.800498420358883 }, "geometry": { "type": "Point", "coordinates": [ 110.397005319686215, -7.800498420358883 ] } }
]
}
